id,altitude,availableBikes,availableDocks,city,landMark,lastCommunicationTime,latitude,location,longitude,postalCode,stAddress1,stAddress2,stationName,statusKey,statusValue,testStation,totalDocks
474,"",1,53,"","",2019-06-12T19:17:40.000-07:00,40.7451677,"",-73.98683077,"",5 Ave & E 29 St,"",5 Ave & E 29 St,1,In Service,false,56
3506,"",3,20,"","",2019-06-12T19:14:32.000-07:00,40.8013066,"",-73.9398167,"",Lexington Ave & E 120 St,"",Lexington Ave & E 120 St,1,In Service,false,29
3764,"",0,21,"","",2019-06-12T19:14:27.000-07:00,40.705517,"",-73.93936,"",Bushwick Ave & McKibbin St,"",Bushwick Ave & McKibbin St,1,In Service,false,21
418,"",6,17,"","",2019-06-12T19:16:00.000-07:00,40.70224,"",-73.982578,"",Front St & Gold St,"",Front St & Gold St,1,In Service,false,23
3061,"",2,18,"","",2019-06-12T19:16:13.000-07:00,40.69622937,"",-73.94371094,"",Throop Ave & Myrtle Ave,"",Throop Ave & Myrtle Ave,1,In Service,false,21
3106,"",13,5,"","",2019-06-12T19:17:37.000-07:00,40.72325,"",-73.94308,"",Driggs Ave & N Henry St,"",Driggs Ave & N Henry St,1,In Service,false,22
3199,"",4,10,"","",2019-06-12T19:16:32.000-07:00,40.7287448,"",-74.0321082,"",Newport Pkwy,"",Newport Pkwy,1,In Service,false,14
3280,"",7,7,"","",2019-06-12T19:15:50.000-07:00,40.71928220070702,"",-74.07126188278198,"",Astor Place,"",Astor Place,1,In Service,false,14
3391,"",6,18,"","",2019-06-12T19:13:58.000-07:00,40.7892529,"",-73.93956237,"",E 106 St & 1 Ave,"",E 106 St & 1 Ave,1,In Service,false,25
270,"",9,14,"","",2019-06-12T19:17:34.000-07:00,40.69308257,"",-73.97178913,"",Adelphi St & Myrtle Ave,"",Adelphi St & Myrtle Ave,1,In Service,false,23
293,"",1,53,"","",2019-06-12T19:17:43.000-07:00,40.73020660529954,"",-73.99102628231049,"",Lafayette St & E 8 St,"",Lafayette St & E 8 St,1,In Service,false,55
3155,"",1,37,"","",2019-06-12T19:16:37.000-07:00,40.76440023,"",-73.96648977,"",Lexington Ave & E 63 St,"",Lexington Ave & E 63 St,1,In Service,false,39
3327,"",7,19,"","",2019-06-12T19:17:40.000-07:00,40.7877214,"",-73.94728331,"",3 Ave & E 100 St,"",3 Ave & E 100 St,1,In Service,false,27
3704,"",1,18,"","",2019-06-12T19:14:49.000-07:00,40.7437524099784,"",-73.94176483154297,"",47 Ave & Skillman Ave,"",47 Ave & Skillman Ave,1,In Service,false,19
243,"",26,4,"","",2019-06-12T19:15:55.000-07:00,40.68841,"",-73.979458,"",Fulton St & Rockwell Pl,"",Fulton St & Rockwell Pl,1,In Service,false,31
278,"",10,7,"","",2019-06-12T19:16:05.000-07:00,40.69766564,"",-73.98476437,"",Concord St & Bridge St,"",Concord St & Bridge St,1,In Service,false,19
442,"",1,48,"","",2019-06-12T19:17:32.000-07:00,40.746647,"",-73.993915,"",W 27 St & 7 Ave,"",W 27 St & 7 Ave,1,In Service,false,51
3452,"",3,39,"","",2019-06-12T19:15:54.000-07:00,40.71915571696044,"",-73.94885390996933,"",Bayard St & Leonard St,"",Bayard St & Leonard St,1,In Service,false,43
296,"",24,10,"","",2019-06-12T19:14:18.000-07:00,40.71413089,"",-73.9970468,"",Division St & Bowery,"",Division St & Bowery,1,In Service,false,35
3069,"",14,12,"","",2019-06-12T19:17:37.000-07:00,40.70411791,"",-73.94818595,"",Lorimer St & Broadway,"",Lorimer St & Broadway,1,In Service,false,29
3081,"",5,24,"","",2019-06-12T19:16:14.000-07:00,40.711863,"",-73.944024,"",Graham Ave & Grand St,"",Graham Ave & Grand St,1,In Service,false,29
415,"",2,39,"","",2019-06-12T19:16:27.000-07:00,40.7047177,"",-74.00926027,"",Pearl St & Hanover Square,"",Pearl St & Hanover Square,1,In Service,false,42
3640,"",1,16,"","",2019-06-12T19:14:32.000-07:00,40.73367,"",-74.0625,"",Journal Square,"",Journal Square,1,In Service,false,18
502,"",27,2,"","",2019-06-12T19:15:06.000-07:00,40.714215,"",-73.981346,"",Henry St & Grand St,"",Henry St & Grand St,1,In Service,false,30
3144,"",9,37,"","",2019-06-12T19:16:01.000-07:00,40.77677702,"",-73.9590097,"",E 81 St & Park Ave,"",E 81 St & Park Ave,1,In Service,false,46
3296,"",10,31,"","",2019-06-12T19:16:34.000-07:00,40.782454175279874,"",-73.9489196240902,"",E 93 St & 2 Ave,"",E 93 St & 2 Ave,1,In Service,false,42
3302,"",0,22,"","",2019-06-12T19:14:09.000-07:00,40.7969347,"",-73.9643412291,"",Columbus Ave & W 103 St,"",Columbus Ave & W 103 St,1,In Service,false,22
3382,"",25,5,"","",2019-06-12T19:17:04.000-07:00,40.680611,"",-73.99475825,"",Carroll St & Smith St,"",Carroll St & Smith St,1,In Service,false,31
3603,"",2,19,"","",2019-06-12T19:16:13.000-07:00,40.7647,"",-73.9240312,"",31 Ave & 30 St,"",31 Ave & 30 St,1,In Service,false,21
3680,"",0,54,"","",2019-06-12T19:16:58.000-07:00,40.754120810779256,"",-73.98025184869766,"",E 43 St & 5 Ave,"",E 43 St & 5 Ave,1,In Service,false,55
167,"",0,45,"","",2019-06-12T19:15:57.000-07:00,40.7489006,"",-73.97604882,"",E 39 St & 3 Ave,"",E 39 St & 3 Ave,1,In Service,false,45
385,"",0,0,"","",2019-06-06T07:48:04.000-07:00,40.75797322,"",-73.96603308,"",E 55 St & 2 Ave,"",E 55 St & 2 Ave,3,Not In Service,false,0
3324,"",12,12,"","",2019-06-12T19:17:41.000-07:00,40.6685455,"",-73.99333264,"",3 Ave & 14 St,"",3 Ave & 14 St,1,In Service,false,25
237,"",14,4,"","",2019-06-12T19:16:12.000-07:00,40.73047309,"",-73.98672378,"",E 11 St & 2 Ave,"",E 11 St & 2 Ave,1,In Service,false,19
241,"",13,10,"","",2019-06-12T19:17:26.000-07:00,40.68981035,"",-73.97493121,"",DeKalb Ave & S Portland Ave,"",DeKalb Ave & S Portland Ave,1,In Service,false,23
347,"",21,12,"","",2019-06-12T19:17:05.000-07:00,40.728846,"",-74.008591,"",Greenwich St & W Houston St,"",Greenwich St & W Houston St,1,In Service,false,35
3158,"",0,27,"","",2019-06-12T19:17:11.000-07:00,40.77163851,"",-73.98261428,"",W 63 St & Broadway,"",W 63 St & Broadway,1,In Service,false,31
3491,"",9,14,"","",2019-06-12T19:15:05.000-07:00,40.79747,"",-73.93504,"",E 118 St & 1 Ave,"",E 118 St & 1 Ave,1,In Service,false,24
3662,"",1,20,"","",2019-06-12T19:14:24.000-07:00,40.761293897289086,"",-73.916916847229,"",31 Ave & Steinway St,"",31 Ave & Steinway St,1,In Service,false,21
330,"",1,37,"","",2019-06-12T19:16:22.000-07:00,40.71450451,"",-74.00562789,"",Reade St & Broadway,"",Reade St & Broadway,1,In Service,false,39
414,"",5,19,"","",2019-06-12T19:16:27.000-07:00,40.70281858,"",-73.98765762,"",Pearl St & Anchorage Pl,"",Pearl St & Anchorage Pl,1,In Service,false,24
530,"",21,2,"","",2019-06-12T19:17:42.000-07:00,40.77149671054441,"",-73.99046033620834,"",11 Ave & W 59 St,"",11 Ave & W 59 St,1,In Service,false,24
3368,"",29,0,"","",2019-06-12T19:15:00.000-07:00,40.6728155,"",-73.98352355,"",5 Ave & 3 St,"",5 Ave & 3 St,1,In Service,false,30
427,"",4,42,"","",2019-06-12T19:17:01.000-07:00,40.701907,"",-74.013942,"",Bus Slip & State St,"",Bus Slip & State St,1,In Service,false,47
486,"",2,35,"","",2019-06-12T19:17:07.000-07:00,40.7462009,"",-73.98855723,"",Broadway & W 29 St,"",Broadway & W 29 St,1,In Service,false,41
487,"",6,28,"","",2019-06-12T19:16:45.000-07:00,40.73314259,"",-73.97573881,"",E 20 St & FDR Drive,"",E 20 St & FDR Drive,1,In Service,false,34
3125,"",0,23,"","",2019-06-12T19:14:13.000-07:00,40.74708586,"",-73.94977234,"",45 Rd & 11 St,"",45 Rd & 11 St,1,In Service,false,23
3243,"",0,28,"","",2019-06-12T19:14:40.000-07:00,40.75892386377695,"",-73.96226227283478,"",E 58 St & 1 Ave (NE Corner),"",E 58 St & 1 Ave (NE Corner),1,In Service,false,29
3352,"",20,1,"","",2019-06-12T19:17:43.000-07:00,40.67267243410948,"",-74.0087952464819,"",Sigourney St & Columbia St,"",Sigourney St & Columbia St,1,In Service,false,21
532,"",33,9,"","",2019-06-12T19:17:07.000-07:00,40.710451,"",-73.960876,"",S 5 Pl & S 5 St,"",S 5 Pl & S 5 St,1,In Service,false,43
3161,"",14,44,"","",2019-06-12T19:15:43.000-07:00,40.7801839724239,"",-73.97728532552719,"",W 76 St & Columbus Ave,"",W 76 St & Columbus Ave,1,In Service,false,59
3269,"",2,12,"","",2019-06-12T19:15:25.000-07:00,40.72601172964625,"",-74.05038893222809,"",Brunswick & 6th,"",Brunswick & 6th,1,In Service,false,14
3311,"",17,0,"","",2019-06-12T19:15:02.000-07:00,40.68763155,"",-74.0016256,"",Columbia St & Kane St,"",Columbia St & Kane St,1,In Service,false,21
3362,"",15,16,"","",2019-06-12T19:17:02.000-07:00,40.7781314,"",-73.96069399,"",Madison Ave & E 82 St,"",Madison Ave & E 82 St,1,In Service,false,34
3495,"",19,2,"","",2019-06-12T19:17:14.000-07:00,40.7945663,"",-73.9362541,"",E 114 St & 1 Ave,"",E 114 St & 1 Ave,1,In Service,false,24
3102,"",23,0,"","",2019-06-12T19:14:44.000-07:00,40.72179134,"",-73.9504154,"",Driggs Ave & Lorimer St,"",Driggs Ave & Lorimer St,1,In Service,false,27
3341,"",8,33,"","",2019-06-12T19:17:23.000-07:00,40.795346,"",-73.96186,"",Central Park W & W 102 St,"",Central Park W & W 102 St,1,In Service,false,41
399,"",18,8,"","",2019-06-12T19:16:15.000-07:00,40.68851534,"",-73.9647628,"",Lafayette Ave & St James Pl,"",Lafayette Ave & St James Pl,1,In Service,false,27
3092,"",4,21,"","",2019-06-12T19:15:48.000-07:00,40.7190095,"",-73.95852515,"",Berry St & N 8 St,"",Berry St & N 8 St,1,In Service,false,27
3326,"",20,0,"","",2019-06-12T19:14:25.000-07:00,40.67434,"",-74.00194698,"",Clinton St & Centre St,"",Clinton St & Centre St,1,In Service,false,21
3612,"",6,9,"","",2019-06-12T19:16:04.000-07:00,40.7703743,"",-73.9286078,"",30 Ave & 21 St,"",30 Ave & 21 St,1,In Service,false,15
3692,"",0,15,"","",2019-06-12T19:15:58.000-07:00,40.699997484388504,"",-73.97440128028393,"",5 St & Market St,"",5 St & Market St,1,In Service,false,15
3766,"",1,20,"","",2019-06-12T19:17:27.000-07:00,40.715353,"",-73.93856,"",Sharon St & Olive St,"",Sharon St & Olive St,1,In Service,false,24
3787,"",0,22,"","",2019-06-12T19:15:20.000-07:00,40.69985,"",-73.97141,"",Dock 72 Way & Market St,"",Dock 72 Way & Market St,1,In Service,false,22
228,"",0,54,"","",2019-06-12T19:14:56.000-07:00,40.7546011026,"",-73.971878855,"",E 48 St & 3 Ave,"",E 48 St & 3 Ave,1,In Service,false,55
274,"",29,0,"","",2019-06-12T19:16:02.000-07:00,40.68691865,"",-73.976682,"",Lafayette Ave & Fort Greene Pl,"",Lafayette Ave & Fort Greene Pl,1,In Service,false,31
529,"",12,27,"","",2019-06-12T19:15:59.000-07:00,40.7575699,"",-73.99098507,"",W 42 St & 8 Ave,"",W 42 St & 8 Ave,1,In Service,false,41
3076,"",9,27,"","",2019-06-12T19:17:03.000-07:00,40.70870368,"",-73.9448625,"",Scholes St & Manhattan Ave,"",Scholes St & Manhattan Ave,1,In Service,false,36
3284,"",7,30,"","",2019-06-12T19:14:37.000-07:00,40.781410700190015,"",-73.95595908164978,"",E 88 St & Park Ave,"",E 88 St & Park Ave,1,In Service,false,38
262,"",7,15,"","",2019-06-12T19:14:54.000-07:00,40.6917823,"",-73.9737299,"",Washington Park,"",Washington Park,1,In Service,false,24
325,"",10,25,"","",2019-06-12T19:13:57.000-07:00,40.73624527,"",-73.98473765,"",E 19 St & 3 Ave,"",E 19 St & 3 Ave,1,In Service,false,35
406,"",14,19,"","",2019-06-12T19:17:00.000-07:00,40.69512845,"",-73.99595065,"",Hicks St & Montague St,"",Hicks St & Montague St,1,In Service,false,34
3399,"",22,0,"","",2019-06-12T19:15:05.000-07:00,40.67260298150126,"",-73.98983001708984,"",7 St & 3 Ave,"",7 St & 3 Ave,1,In Service,false,24
3532,"",8,19,"","",2019-06-12T19:17:10.000-07:00,40.78145,"",-73.9183302,"",Ditmars Blvd & 19 St,"",Ditmars Blvd & 19 St,1,In Service,false,27
3689,"",9,38,"","",2019-06-12T19:14:56.000-07:00,40.799041392882984,"",-73.96649479866028,"",W 104 St & Amsterdam Ave,"",W 104 St & Amsterdam Ave,1,In Service,false,47
3330,"",18,0,"","",2019-06-12T19:17:15.000-07:00,40.6725058,"",-74.00494695,"",Henry St & Bay St,"",Henry St & Bay St,1,In Service,false,19
3396,"",15,9,"","",2019-06-12T19:15:03.000-07:00,40.6783563,"",-74.00014502,"",Clinton St & 4 Place,"",Clinton St & 4 Place,1,In Service,false,25
421,"",6,12,"","",2019-06-12T19:17:01.000-07:00,40.69573398,"",-73.97129668,"",Clermont Ave & Park Ave,"",Clermont Ave & Park Ave,1,In Service,false,19
3339,"",20,2,"","",2019-06-12T19:14:50.000-07:00,40.6765304,"",-73.97846879,"",Berkeley Pl & 6 Ave,"",Berkeley Pl & 6 Ave,1,In Service,false,23
264,"",0,27,"","",2019-06-12T19:15:05.000-07:00,40.70706456,"",-74.00731853,"",Maiden Ln & Pearl St,"",Maiden Ln & Pearl St,1,In Service,false,27
3201,"",6,12,"","",2019-06-12T19:14:01.000-07:00,40.737711,"",-74.066921,"",Dey St,"",Dey St,1,In Service,false,18
3430,"",9,15,"","",2019-06-12T19:13:57.000-07:00,40.71907891179564,"",-73.94223690032959,"",Richardson St & N Henry St,"",Richardson St & N Henry St,1,In Service,false,25
3552,"",1,38,"","",2019-06-12T19:17:19.000-07:00,40.805973,"",-73.964928,"",W 113 St & Broadway,"",W 113 St & Broadway,1,In Service,false,39
3791,"",15,17,"","",2019-06-12T19:16:51.000-07:00,40.73520838045357,"",-74.04696375131607,"",Hoboken Ave at Monmouth St,"",Hoboken Ave at Monmouth St,1,In Service,false,32
229,"",8,14,"","",2019-06-12T19:17:01.000-07:00,40.72743423,"",-73.99379025,"",Great Jones St,"",Great Jones St,1,In Service,false,23
3136,"",0,42,"","",2019-06-12T19:16:13.000-07:00,40.766368,"",-73.971518,"",5 Ave & E 63 St,"",5 Ave & E 63 St,1,In Service,false,44
3173,"",39,0,"","",2019-06-12T19:15:23.000-07:00,40.777507027547976,"",-73.98888587951659,"",Riverside Blvd & W 67 St,"",Riverside Blvd & W 67 St,1,In Service,false,39
3403,"",27,3,"","",2019-06-12T19:15:49.000-07:00,40.6705135,"",-73.98876585,"",4 Ave & 9 St,"",4 Ave & 9 St,1,In Service,false,31
3671,"",8,28,"","",2019-06-12T19:14:12.000-07:00,40.774779448957275,"",-73.95427465438843,"",E 81 St & 2 Ave,"",E 81 St & 2 Ave,1,In Service,false,37
3687,"",2,54,"","",2019-06-12T19:16:52.000-07:00,40.74322681432173,"",-73.97449783980846,"",E 33 St & 1 Ave,"",E 33 St & 1 Ave,1,In Service,false,59
3737,"",19,16,"","",2019-06-12T19:16:50.000-07:00,40.720747,"",-73.986274,"",Stanton St & Norfolk St,"",Stanton St & Norfolk St,1,In Service,false,35
275,"",1,15,"","",2019-06-12T19:17:38.000-07:00,40.68650065,"",-73.96563307,"",Washington Ave & Greene Ave,"",Washington Ave & Greene Ave,1,In Service,false,19
343,"",13,9,"","",2019-06-12T19:15:35.000-07:00,40.69794,"",-73.96986848,"",Clinton Ave & Flushing Ave,"",Clinton Ave & Flushing Ave,1,In Service,false,23
439,"",39,0,"","",2019-06-12T19:17:36.000-07:00,40.7262807,"",-73.98978041,"",E 4 St & 2 Ave,"",E 4 St & 2 Ave,1,In Service,false,39
3054,"",6,12,"","",2019-06-12T19:17:27.000-07:00,40.6894932,"",-73.942061,"",Greene Ave & Throop Ave,"",Greene Ave & Throop Ave,1,In Service,false,19
3196,"",1,17,"","",2019-06-12T19:16:50.000-07:00,40.7443187,"",-74.0439909,"",Riverview Park,"",Riverview Park,1,In Service,false,18
3366,"",3,28,"","",2019-06-12T19:14:07.000-07:00,40.8021174,"",-73.9681805305,"",W End Ave & W 107 St,"",W End Ave & W 107 St,1,In Service,false,31
3410,"",28,2,"","",2019-06-12T19:16:13.000-07:00,40.6864442,"",-73.98759104,"",Dean St & Hoyt St,"",Dean St & Hoyt St,1,In Service,false,31
513,"",0,27,"","",2019-06-12T19:17:43.000-07:00,40.768254,"",-73.988639,"",W 56 St & 10 Ave,"",W 56 St & 10 Ave,1,In Service,false,29
3043,"",4,15,"","",2019-06-12T19:14:34.000-07:00,40.6814598,"",-73.934903,"",Lewis Ave & Decatur St,"",Lewis Ave & Decatur St,1,In Service,false,19
3105,"",11,12,"","",2019-06-12T19:13:47.000-07:00,40.724055,"",-73.955736,"",N 15 St & Wythe Ave,"",N 15 St & Wythe Ave,1,In Service,false,24
3258,"",4,30,"","",2019-06-12T19:16:29.000-07:00,40.75018156325683,"",-74.00218427181244,"",W 27 St & 10 Ave,"",W 27 St & 10 Ave,1,In Service,false,37
3306,"",21,1,"","",2019-06-12T19:17:23.000-07:00,40.6662078,"",-73.98199886,"",10 St & 7 Ave,"",10 St & 7 Ave,1,In Service,false,23
3343,"",2,20,"","",2019-06-12T19:16:35.000-07:00,40.7997568,"",-73.9621128676,"",W 107 St & Columbus Ave,"",W 107 St & Columbus Ave,1,In Service,false,23
3386,"",2,25,"","",2019-06-12T19:14:29.000-07:00,40.6809591,"",-73.99905709,"",1 Pl & Clinton St,"",1 Pl & Clinton St,1,In Service,false,27
3398,"",15,8,"","",2019-06-12T19:17:07.000-07:00,40.6746957,"",-73.99785768,"",Smith St & 9 St,"",Smith St & 9 St,1,In Service,false,23
3539,"",0,43,"","",2019-06-12T19:17:07.000-07:00,40.8067581,"",-73.9607082,"",W 116 St & Amsterdam Ave,"",W 116 St & Amsterdam Ave,1,In Service,false,43
144,"",9,9,"","",2019-06-12T19:13:59.000-07:00,40.69839895,"",-73.98068914,"",Nassau St & Navy St,"",Nassau St & Navy St,1,In Service,false,19
388,"",2,31,"","",2019-06-12T19:17:40.000-07:00,40.749717753,"",-74.002950346,"",W 26 St & 10 Ave,"",W 26 St & 10 Ave,1,In Service,false,35
412,"",25,0,"","",2019-06-12T19:15:26.000-07:00,40.7158155,"",-73.99422366,"",Forsyth St & Canal St,"",Forsyth St & Canal St,1,In Service,false,29
417,"",0,20,"","",2019-06-12T19:17:07.000-07:00,40.71291224,"",-74.01020234,"",Barclay St & Church St,"",Barclay St & Church St,1,In Service,false,25
2021,"",11,32,"","",2019-06-12T19:17:11.000-07:00,40.75929124,"",-73.98859651,"",W 45 St & 8 Ave,"",W 45 St & 8 Ave,1,In Service,false,43
3437,"",19,19,"","",2019-06-12T19:14:06.000-07:00,40.79313480986663,"",-73.97700369358063,"",Riverside Dr & W 91 St,"",Riverside Dr & W 91 St,1,In Service,false,39
3210,"",5,13,"","",2019-06-12T19:16:14.000-07:00,40.742677141,"",-74.051788633,"",Pershing Field,"",Pershing Field,1,In Service,false,18
3390,"",1,20,"","",2019-06-12T19:15:44.000-07:00,40.79329668,"",-73.9432083,"",E 109 St & 3 Ave,"",E 109 St & 3 Ave,1,In Service,false,24
3405,"",23,0,"","",2019-06-12T19:15:27.000-07:00,40.6704836,"",-73.98208968,"",5 St & 6 Ave,"",5 St & 6 Ave,1,In Service,false,23
3617,"",6,21,"","",2019-06-12T19:15:25.000-07:00,40.7671,"",-73.9169858,"",28 Ave & 35 St,"",28 Ave & 35 St,1,In Service,false,27
420,"",17,6,"","",2019-06-12T19:17:34.000-07:00,40.68764484,"",-73.96968902,"",Clermont Ave & Lafayette Ave,"",Clermont Ave & Lafayette Ave,1,In Service,false,23
3312,"",22,17,"","",2019-06-12T19:17:08.000-07:00,40.7817212,"",-73.94594,"",1 Ave & E 94 St,"",1 Ave & E 94 St,1,In Service,false,39
3440,"",3,40,"","",2019-06-12T19:17:18.000-07:00,40.692418292578466,"",-73.98949474096298,"",Fulton St & Adams St,"",Fulton St & Adams St,1,In Service,false,43
2012,"",4,32,"","",2019-06-12T19:15:52.000-07:00,40.739445,"",-73.976806,"",E 27 St & 1 Ave,"",E 27 St & 1 Ave,1,In Service,false,36
3559,"",1,18,"","",2019-06-12T19:14:46.000-07:00,40.7576314,"",-73.9391224,"",21 St & 38 Ave,"",21 St & 38 Ave,1,In Service,false,19
212,"",0,60,"","",2019-06-12T19:17:08.000-07:00,40.74334935,"",-74.00681753,"",W 16 St & The High Line,"",W 16 St & The High Line,1,In Service,false,60
3067,"",10,17,"","",2019-06-12T19:16:13.000-07:00,40.7016657,"",-73.9437303,"",Broadway & Whipple St,"",Broadway & Whipple St,1,In Service,false,27
3175,"",10,18,"","",2019-06-12T19:16:37.000-07:00,40.77748046,"",-73.98288594,"",W 70 St & Amsterdam Ave,"",W 70 St & Amsterdam Ave,1,In Service,false,31
376,"",1,41,"","",2019-06-12T19:17:41.000-07:00,40.70862144,"",-74.00722156,"",John St & William St,"",John St & William St,1,In Service,false,43
516,"",0,31,"","",2019-06-12T19:16:46.000-07:00,40.75206862,"",-73.96784384,"",E 47 St & 1 Ave,"",E 47 St & 1 Ave,1,In Service,false,31
3372,"",10,29,"","",2019-06-12T19:17:18.000-07:00,40.7689738,"",-73.95482273,"",E 74 St & 1 Ave,"",E 74 St & 1 Ave,1,In Service,false,39
3408,"",18,8,"","",2019-06-12T19:17:29.000-07:00,40.6881529,"",-73.99520919,"",Congress St & Clinton St,"",Congress St & Clinton St,1,In Service,false,27
3457,"",0,0,"","",2019-05-07T11:28:18.000-07:00,40.76302594280519,"",-73.97209525108337,"",E 58 St & Madison Ave,"",E 58 St & Madison Ave,3,Not In Service,false,0
3570,"",8,23,"","",2019-06-12T19:14:08.000-07:00,40.7557327,"",-73.9236611,"",35 Ave & 37 St,"",35 Ave & 37 St,1,In Service,false,31
119,"",6,11,"","",2019-06-12T19:14:22.000-07:00,40.69608941,"",-73.97803415,"",Park Ave & St Edwards St,"",Park Ave & St Edwards St,1,In Service,false,19
326,"",40,0,"","",2019-06-12T19:13:59.000-07:00,40.72953837,"",-73.98426726,"",E 11 St & 1 Ave,"",E 11 St & 1 Ave,1,In Service,false,41
386,"",0,41,"","",2019-06-12T19:16:21.000-07:00,40.71494807,"",-74.00234482,"",Centre St & Worth St,"",Centre St & Worth St,1,In Service,false,43
450,"",1,65,"","",2019-06-12T19:16:48.000-07:00,40.76227205,"",-73.98788205,"",W 49 St & 8 Ave,"",W 49 St & 8 Ave,1,In Service,false,67
3407,"",22,0,"","",2019-06-12T19:17:36.000-07:00,40.67909799721684,"",-73.98765474557877,"",Union St & Nevins St,"",Union St & Nevins St,1,In Service,false,23
3420,"",20,1,"","",2019-06-12T19:15:15.000-07:00,40.6802133,"",-73.98432695,"",Douglass St & 3 Ave,"",Douglass St & 3 Ave,1,In Service,false,21
496,"",4,43,"","",2019-06-12T19:14:46.000-07:00,40.73726186,"",-73.99238967,"",E 16 St & 5 Ave,"",E 16 St & 5 Ave,1,In Service,false,47
3322,"",20,5,"","",2019-06-12T19:14:13.000-07:00,40.668603,"",-73.9904394,"",12 St & 4 Ave,"",12 St & 4 Ave,1,In Service,false,25
402,"",1,36,"","",2019-06-12T19:17:05.000-07:00,40.7403432,"",-73.98955109,"",Broadway & E 22 St,"",Broadway & E 22 St,1,In Service,false,39
2022,"",1,32,"","",2019-06-12T19:16:40.000-07:00,40.759107,"",-73.959223,"",E 60 St & York Ave,"",E 60 St & York Ave,1,In Service,false,33
3486,"",26,4,"","",2019-06-12T19:16:15.000-07:00,40.688417427540834,"",-73.98451656103134,"",Schermerhorn St & Bond St,"",Schermerhorn St & Bond St,1,In Service,false,30
3734,"",0,49,"","",2019-06-12T19:16:44.000-07:00,40.759125,"",-73.962658,"",E 58 St &  1 Ave (NW Corner),"",E 58 St &  1 Ave (NW Corner),1,In Service,false,50
3050,"",7,13,"","",2019-06-12T19:15:45.000-07:00,40.6851532,"",-73.94111,"",Putnam Ave & Throop Ave,"",Putnam Ave & Throop Ave,1,In Service,false,21
3110,"",19,7,"","",2019-06-12T19:14:05.000-07:00,40.72708584,"",-73.95299117,"",Meserole Ave & Manhattan Ave,"",Meserole Ave & Manhattan Ave,1,In Service,false,28
3575,"",3,16,"","",2019-06-12T19:15:59.000-07:00,40.76108,"",-73.930562,"",Crescent St & 34 Ave,"",Crescent St & 34 Ave,1,In Service,false,19
116,"",6,31,"","",2019-06-12T19:17:18.000-07:00,40.74177603,"",-74.00149746,"",W 17 St & 8 Ave,"",W 17 St & 8 Ave,1,In Service,false,39
3183,"",0,28,"","",2019-05-20T08:46:06.000-07:00,40.7162469,"",-74.0334588,"",Exchange Place,"",Exchange Place,3,Not In Service,false,28
3319,"",8,13,"","",2019-06-12T19:14:06.000-07:00,40.666287,"",-73.98895053,"",14 St & 5 Ave,"",14 St & 5 Ave,1,In Service,false,21
3469,"",11,12,"","",2019-06-12T19:16:10.000-07:00,40.73181401720966,"",-73.95995020866394,"",India St & W St,"",India St & W St,1,In Service,false,23
3538,"",2,41,"","",2019-06-12T19:17:07.000-07:00,40.802692,"",-73.96295,"",W 110 St & Amsterdam Ave,"",W 110 St & Amsterdam Ave,1,In Service,false,45
3275,"",7,7,"","",2019-06-12T19:15:05.000-07:00,40.71835519823214,"",-74.03891444206238,"",Columbus Drive,"",Columbus Drive,1,In Service,false,14
3746,"",2,45,"","",2019-06-12T19:17:25.000-07:00,40.724308321602166,"",-74.00473035871983,"",6 Ave & Broome St,"",6 Ave & Broome St,1,In Service,false,48
3156,"",0,37,"","",2019-06-12T19:16:28.000-07:00,40.76663814,"",-73.95348296,"",E 72 St & York Ave,"",E 72 St & York Ave,1,In Service,false,37
3463,"",2,34,"","",2019-06-12T19:16:15.000-07:00,40.735367055605394,"",-73.98797392845154,"",E 16 St & Irving Pl,"",E 16 St & Irving Pl,1,In Service,false,37
3507,"",3,32,"","",2019-06-12T19:17:21.000-07:00,40.8045555,"",-73.9396861,"",Park Ave & E 124 St,"",Park Ave & E 124 St,1,In Service,false,36
3623,"",2,37,"","",2019-06-12T19:13:52.000-07:00,40.8109494,"",-73.9634,"",W 120 St & Claremont Ave,"",W 120 St & Claremont Ave,1,In Service,false,39
3664,"",1,28,"","",2019-06-12T19:17:43.000-07:00,40.72019521437465,"",-74.0103006362915,"",N Moore St & Greenwich St,"",N Moore St & Greenwich St,1,In Service,false,30
157,"",20,3,"","",2019-06-12T19:17:10.000-07:00,40.69089272,"",-73.99612349,"",Henry St & Atlantic Ave,"",Henry St & Atlantic Ave,1,In Service,false,23
3781,"",15,15,"","",2019-06-12T19:15:05.000-07:00,40.698568,"",-73.918877,"",Greene Av & Myrtle Av,"",Greene Av & Myrtle Av,1,In Service,false,30
363,"",2,45,"","",2019-06-12T19:14:36.000-07:00,40.70834698,"",-74.01713445,"",W Thames St,"",W Thames St,1,In Service,false,49
3295,"",13,42,"","",2019-06-12T19:17:01.000-07:00,40.79127,"",-73.964839,"",Central Park W & W 96 St,"",Central Park W & W 96 St,1,In Service,false,59
3481,"",3,17,"","",2019-06-12T19:17:32.000-07:00,40.71649,"",-74.04105,"",York St,"",York St,1,In Service,false,22
3728,"",5,17,"","",2019-06-12T19:14:33.000-07:00,40.69535693320225,"",-73.99344027042389,"",Pierrepont St & Monroe Pl,"",Pierrepont St & Monroe Pl,1,In Service,false,24
3535,"",12,15,"","",2019-06-12T19:17:14.000-07:00,40.804038,"",-73.945925,"",Mt Morris Park W & W 120 St,"",Mt Morris Park W & W 120 St,1,In Service,false,27
3605,"",5,16,"","",2019-06-12T19:16:22.000-07:00,40.7658346,"",-73.9265474,"",31 Ave & Crescent St,"",31 Ave & Crescent St,1,In Service,false,21
268,"",0,27,"","",2019-06-12T19:16:02.000-07:00,40.71910537,"",-73.99973337,"",Howard St & Centre St,"",Howard St & Centre St,1,In Service,false,27
3574,"",5,17,"","",2019-06-12T19:13:54.000-07:00,40.6769694,"",-73.96579,"",Prospect Pl & Underhill Ave,"",Prospect Pl & Underhill Ave,1,In Service,false,23
369,"",7,13,"","",2019-06-12T19:16:30.000-07:00,40.73224119,"",-74.00026394,"",Washington Pl & 6 Ave,"",Washington Pl & 6 Ave,1,In Service,false,21
455,"",0,57,"","",2019-06-12T19:17:06.000-07:00,40.75001986,"",-73.96905301,"",1 Ave & E 44 St,"",1 Ave & E 44 St,1,In Service,false,59
3122,"",13,18,"","",2019-06-12T19:15:10.000-07:00,40.744363287066875,"",-73.9558732509613,"",48 Ave & 5 St,"",48 Ave & 5 St,1,In Service,false,31
3569,"",5,24,"","",2019-06-12T19:14:21.000-07:00,40.6758324,"",-73.9561677,"",Franklin Ave & St Marks Ave,"",Franklin Ave & St Marks Ave,1,In Service,false,29
143,"",1,22,"","",2019-06-12T19:14:05.000-07:00,40.69239502,"",-73.99337909,"",Clinton St & Joralemon St,"",Clinton St & Joralemon St,1,In Service,false,24
3080,"",8,13,"","",2019-06-12T19:15:23.000-07:00,40.70934,"",-73.95608,"",S 4 St & Rodney St,"",S 4 St & Rodney St,1,In Service,false,21
3195,"",0,33,"","",2019-06-12T19:14:18.000-07:00,40.73089709786179,"",-74.06391263008118,"",Sip Ave,"",Sip Ave,1,In Service,false,34
3267,"",2,12,"","",2019-06-12T19:14:36.000-07:00,40.7124188237569,"",-74.03852552175522,"",Morris Canal,"",Morris Canal,1,In Service,false,14
3514,"",22,0,"","",2019-06-12T19:17:31.000-07:00,40.7767,"",-73.927631,"",Astoria Park S & Shore Blvd,"",Astoria Park S & Shore Blvd,1,In Service,false,23
3541,"",17,21,"","",2019-06-12T19:14:05.000-07:00,40.813358,"",-73.956461,"",Amsterdam Ave & W 125 St,"",Amsterdam Ave & W 125 St,1,In Service,false,39
3545,"",5,28,"","",2019-06-12T19:16:12.000-07:00,40.8120562,"",-73.9612547,"",Broadway & W 122 St,"",Broadway & W 122 St,1,In Service,false,33
161,"",33,1,"","",2019-06-12T19:17:32.000-07:00,40.72917025,"",-73.99810231,"",LaGuardia Pl & W 3 St,"",LaGuardia Pl & W 3 St,1,In Service,false,35
365,"",6,24,"","",2019-06-12T19:17:08.000-07:00,40.68223166,"",-73.9614583,"",Fulton St & Grand Ave,"",Fulton St & Grand Ave,1,In Service,false,31
443,"",7,16,"","",2019-06-12T19:14:33.000-07:00,40.70853074,"",-73.96408963,"",Bedford Ave & S 9 St,"",Bedford Ave & S 9 St,1,In Service,false,23
3232,"",29,1,"","",2019-06-12T19:17:15.000-07:00,40.68962188790333,"",-73.98304268717766,"",Bond St & Fulton St,"",Bond St & Fulton St,3,Not In Service,false,31
3513,"",6,14,"","",2019-06-12T19:17:09.000-07:00,40.774645,"",-73.923706,"",21 St & Hoyt Ave S,"",21 St & Hoyt Ave S,1,In Service,false,21
3534,"",24,15,"","",2019-06-12T19:14:48.000-07:00,40.805159,"",-73.954692,"",Frederick Douglass Blvd & W 117 St,"",Frederick Douglass Blvd & W 117 St,1,In Service,false,39
3631,"",7,20,"","",2019-06-12T19:15:52.000-07:00,40.666563,"",-73.956741,"",Crown St & Bedford Ave,"",Crown St & Bedford Ave,1,In Service,false,27
342,"",24,1,"","",2019-06-12T19:17:18.000-07:00,40.71739973,"",-73.98016555,"",Columbia St & Rivington St,"",Columbia St & Rivington St,1,In Service,false,29
466,"",2,33,"","",2019-06-12T19:15:26.000-07:00,40.74395411,"",-73.99144871,"",W 25 St & 6 Ave,"",W 25 St & 6 Ave,1,In Service,false,35
3384,"",11,14,"","",2019-06-12T19:17:23.000-07:00,40.6787242,"",-73.99599099,"",Smith St & 3 St,"",Smith St & 3 St,1,In Service,false,25
72,"",9,45,"","",2019-06-12T19:17:38.000-07:00,40.76727216,"",-73.99392888,"",W 52 St & 11 Ave,"",W 52 St & 11 Ave,1,In Service,false,55
3328,"",11,27,"","",2019-06-12T19:13:47.000-07:00,40.795,"",-73.9645,"",W 100 St & Manhattan Ave,"",W 100 St & Manhattan Ave,1,In Service,false,39
3510,"",3,28,"","",2019-06-12T19:14:39.000-07:00,40.8078316,"",-73.949373,"",Adam Clayton Powell Blvd & W 123 St,"",Adam Clayton Powell Blvd & W 123 St,1,In Service,false,31
3580,"",25,3,"","",2019-06-12T19:16:40.000-07:00,40.6737236,"",-73.9631611,"",St Johns Pl & Washington Ave,"",St Johns Pl & Washington Ave,1,In Service,false,30
258,"",8,15,"","",2019-06-12T19:16:50.000-07:00,40.68940747,"",-73.96885458,"",DeKalb Ave & Vanderbilt Ave,"",DeKalb Ave & Vanderbilt Ave,1,In Service,false,23
320,"",6,20,"","",2019-06-12T19:14:08.000-07:00,40.717571,"",-74.005549,"",Leonard St & Church St,"",Leonard St & Church St,1,In Service,false,27
3198,"",3,15,"","",2019-06-12T19:15:06.000-07:00,40.748715945380226,"",-74.04044330120087,"",Heights Elevator,"",Heights Elevator,1,In Service,false,18
3345,"",0,34,"","",2019-06-12T19:16:39.000-07:00,40.78948541553215,"",-73.95242929458618,"",Madison Ave & E 99 St,"",Madison Ave & E 99 St,1,In Service,false,35
266,"",30,0,"","",2019-06-12T19:15:29.000-07:00,40.72368361,"",-73.97574813,"",Ave. D & E 8 St,"",Ave. D & E 8 St,1,In Service,false,30
3094,"",3,15,"","",2019-06-12T19:16:00.000-07:00,40.7169811,"",-73.94485918,"",Graham Ave & Withers St,"",Graham Ave & Withers St,1,In Service,false,18
3554,"",1,26,"","",2019-06-12T19:14:49.000-07:00,40.7552433,"",-73.9485678,"",Vernon Blvd & 41 Rd,"",Vernon Blvd & 41 Rd,1,In Service,false,27
3607,"",5,14,"","",2019-06-12T19:17:25.000-07:00,40.7682,"",-73.9322662,"",31 Ave & 14 St,"",31 Ave & 14 St,1,In Service,false,19
3608,"",12,9,"","",2019-06-12T19:14:40.000-07:00,40.7423737,"",-73.9566,"",5 St & 51 Ave,"",5 St & 51 Ave,1,In Service,false,21
3733,"",20,26,"","",2019-06-12T19:16:36.000-07:00,40.730563,"",-73.973984,"",Ave. C & E 18 St,"",Ave. C & E 18 St,1,In Service,false,46
3779,"",4,20,"","",2019-06-12T19:16:29.000-07:00,40.704876,"",-73.919911,"",Hart St & Wyckoff Ave,"",Hart St & Wyckoff Ave,1,In Service,false,24
316,"",0,43,"","",2019-06-12T19:15:12.000-07:00,40.70955958,"",-74.00653609,"",Fulton St & William St,"",Fulton St & William St,1,In Service,false,43
3586,"",1,13,"","",2019-06-12T19:15:46.000-07:00,40.7638753,"",-73.9364848,"",34 Ave & 13 St,"",34 Ave & 13 St,1,In Service,false,19
389,"",15,12,"","",2019-06-12T19:15:57.000-07:00,40.71044554,"",-73.96525063,"",Broadway & Berry St,"",Broadway & Berry St,1,In Service,false,27
397,"",7,19,"","",2019-06-12T19:15:41.000-07:00,40.68415748,"",-73.96922273,"",Fulton St & Clermont Ave,"",Fulton St & Clermont Ave,1,In Service,false,27
447,"",1,27,"","",2019-06-12T19:17:08.000-07:00,40.76370739,"",-73.9851615,"",8 Ave & W 52 St,"",8 Ave & W 52 St,1,In Service,false,31
3668,"",24,0,"","",2019-06-12T19:17:34.000-07:00,40.7239567849954,"",-73.94984364509583,"",Leonard St & Nassau Ave,"",Leonard St & Nassau Ave,1,In Service,false,26
3093,"",1,27,"","",2019-06-12T19:16:59.000-07:00,40.71745169,"",-73.95850939,"",N 6 St & Bedford Ave,"",N 6 St & Bedford Ave,1,In Service,false,28
353,"",11,16,"","",2019-06-12T19:17:03.000-07:00,40.68539567,"",-73.97431458,"",S Portland Ave & Hanson Pl,"",S Portland Ave & Hanson Pl,1,In Service,false,27
3042,"",13,3,"","",2019-06-12T19:17:20.000-07:00,40.6794268,"",-73.9298911,"",Fulton St & Utica Ave,"",Fulton St & Utica Ave,1,In Service,false,19
239,"",0,30,"","",2019-06-12T19:17:31.000-07:00,40.69196566,"",-73.9813018,"",Willoughby St & Fleet St,"",Willoughby St & Fleet St,1,In Service,false,31
341,"",8,11,"","",2019-06-12T19:17:18.000-07:00,40.71782143,"",-73.97628939,"",Stanton St & Mangin St,"",Stanton St & Mangin St,1,In Service,false,19
3193,"",8,10,"","",2019-06-12T19:15:18.000-07:00,40.7246050998869,"",-74.07840594649315,"",Lincoln Park,"",Lincoln Park,1,In Service,false,18
3418,"",18,14,"","",2019-06-12T19:17:43.000-07:00,40.6750207,"",-73.97111473,"",Plaza St W & Flatbush Ave,"",Plaza St W & Flatbush Ave,1,In Service,false,33
3502,"",10,19,"","",2019-06-12T19:16:37.000-07:00,40.7954121,"",-73.9441232,"",Lexington Ave & E 111 St,"",Lexington Ave & E 111 St,1,In Service,false,29
3595,"",0,17,"","",2019-06-12T19:16:55.000-07:00,40.760339,"",-73.9222427,"",35 St & Broadway,"",35 St & Broadway,1,In Service,false,18
150,"",26,26,"","",2019-06-12T19:14:18.000-07:00,40.7208736,"",-73.98085795,"",E 2 St & Ave. C,"",E 2 St & Ave. C,1,In Service,false,54
279,"",0,34,"","",2019-06-12T19:15:13.000-07:00,40.707873,"",-74.00167,"",Peck Slip & Front St,"",Peck Slip & Front St,1,In Service,false,36
3318,"",18,21,"","",2019-06-12T19:15:44.000-07:00,40.7839636,"",-73.9471673,"",2 Ave & E 96 St,"",2 Ave & E 96 St,1,In Service,false,39
3566,"",6,18,"","",2019-06-12T19:17:10.000-07:00,40.7596276,"",-73.9321455,"",Crescent St & 35 Ave,"",Crescent St & 35 Ave,1,In Service,false,25
3758,"",18,1,"","",2019-06-12T19:15:52.000-07:00,40.702997,"",-73.92997,"",George St & Wilson Ave,"",George St & Wilson Ave,1,In Service,false,19
146,"",8,30,"","",2019-06-12T19:17:15.000-07:00,40.71625008,"",-74.0091059,"",Hudson St & Reade St,"",Hudson St & Reade St,1,In Service,false,39
346,"",26,1,"","",2019-06-12T19:15:47.000-07:00,40.73652889,"",-74.00618026,"",Bank St & Hudson St,"",Bank St & Hudson St,1,In Service,false,27
546,"",1,44,"","",2019-06-12T19:15:49.000-07:00,40.74444921,"",-73.98303529,"",E 30 St & Park Ave S,"",E 30 St & Park Ave S,1,In Service,false,45
3308,"",27,0,"","",2019-06-12T19:14:10.000-07:00,40.6861758,"",-73.99645295,"",Kane St & Clinton St,"",Kane St & Clinton St,1,In Service,false,27
3558,"",11,15,"","",2019-06-12T19:17:08.000-07:00,40.6794388,"",-73.9680438,"",Bergen St & Vanderbilt Ave,"",Bergen St & Vanderbilt Ave,1,In Service,false,27
3715,"",20,11,"","",2019-06-12T19:17:11.000-07:00,40.71816969454208,"",-73.95520135760307,"",Driggs Ave & N 9 St,"",Driggs Ave & N 9 St,1,In Service,false,31
446,"",2,42,"","",2019-06-12T19:16:59.000-07:00,40.74487634,"",-73.99529885,"",W 24 St & 7 Ave,"",W 24 St & 7 Ave,1,In Service,false,47
459,"",29,14,"","",2019-06-12T19:17:42.000-07:00,40.746745,"",-74.007756,"",W 20 St & 11 Ave,"",W 20 St & 11 Ave,1,In Service,false,47
3378,"",1,27,"","",2019-06-12T19:17:04.000-07:00,40.773763,"",-73.96222088,"",E 76 St & Park Ave,"",E 76 St & Park Ave,1,In Service,false,28
3387,"",1,24,"","",2019-06-12T19:15:28.000-07:00,40.7934337,"",-73.94945003,"",E 106 St & Madison Ave,"",E 106 St & Madison Ave,1,In Service,false,25
3423,"",25,0,"","",2019-06-12T19:17:03.000-07:00,40.6610633719006,"",-73.97945255041122,"",W Drive & Prospect Park W,"",W Drive & Prospect Park W,1,In Service,false,29
174,"",3,27,"","",2019-06-12T19:16:35.000-07:00,40.7381765,"",-73.97738662,"",E 25 St & 1 Ave,"",E 25 St & 1 Ave,1,In Service,false,30
3646,"",1,24,"","",2019-06-12T19:16:01.000-07:00,40.76315481910373,"",-73.93985509872437,"",35 Ave & 10 St,"",35 Ave & 10 St,1,In Service,false,26
79,"",1,30,"","",2019-06-12T19:16:54.000-07:00,40.71911552,"",-74.00666661,"",Franklin St & W Broadway,"",Franklin St & W Broadway,1,In Service,false,33
236,"",46,1,"","",2019-06-12T19:17:26.000-07:00,40.7284186,"",-73.98713956,"",St Marks Pl & 2 Ave,"",St Marks Pl & 2 Ave,1,In Service,false,47
3501,"",3,24,"","",2019-06-12T19:14:41.000-07:00,40.8014866,"",-73.9442507,"",E 118 St & Madison Ave,"",E 118 St & Madison Ave,1,In Service,false,29
276,"",1,24,"","",2019-06-12T19:17:33.000-07:00,40.71748752,"",-74.0104554,"",Duane St & Greenwich St,"",Duane St & Greenwich St,1,In Service,false,25
509,"",0,0,"","",2019-05-01T08:10:52.000-07:00,40.7454973,"",-74.00197139,"",9 Ave & W 22 St,"",9 Ave & W 22 St,3,Not In Service,false,0
3137,"",16,15,"","",2019-06-12T19:16:14.000-07:00,40.77282817,"",-73.96685276,"",5 Ave & E 73 St,"",5 Ave & E 73 St,1,In Service,false,31
3409,"",22,9,"","",2019-06-12T19:17:43.000-07:00,40.6867443,"",-73.99063168,"",Bergen St & Smith St,"",Bergen St & Smith St,1,In Service,false,35
3549,"",16,9,"","",2019-06-12T19:17:38.000-07:00,40.678045,"",-73.962408,"",Grand Ave & Bergen St,"",Grand Ave & Bergen St,1,In Service,false,25
3756,"",11,10,"","",2019-06-12T19:17:02.000-07:00,40.704508,"",-73.9351,"",White St & Moore St,"",White St & Moore St,1,In Service,false,21
3427,"",5,33,"","",2019-06-12T19:17:09.000-07:00,40.72430527250332,"",-73.99600982666016,"",Lafayette St & Jersey St,"",Lafayette St & Jersey St,1,In Service,false,40
3453,"",5,13,"","",2019-06-12T19:15:27.000-07:00,40.71335226222875,"",-73.9491033554077,"",Devoe St & Lorimer St,"",Devoe St & Lorimer St,1,In Service,false,19
242,"",8,14,"","",2019-06-12T19:17:43.000-07:00,40.697787,"",-73.973736,"",Carlton Ave & Flushing Ave,"",Carlton Ave & Flushing Ave,1,In Service,false,23
453,"",38,25,"","",2019-06-12T19:17:28.000-07:00,40.74475148,"",-73.99915362,"",W 22 St & 8 Ave,"",W 22 St & 8 Ave,1,In Service,false,66
3355,"",1,24,"","",2019-06-12T19:15:29.000-07:00,40.76800889305947,"",-73.96845281124115,"",E 66 St & Madison Ave,"",E 66 St & Madison Ave,1,In Service,false,25
3591,"",8,11,"","",2019-06-12T19:14:46.000-07:00,40.7659,"",-73.930819,"",21 St & 31 Dr,"",21 St & 31 Dr,1,In Service,false,21
499,"",0,35,"","",2019-06-12T19:14:29.000-07:00,40.76915505,"",-73.98191841,"",Broadway & W 60 St,"",Broadway & W 60 St,1,In Service,false,36
3108,"",21,27,"","",2019-06-12T19:17:41.000-07:00,40.72557,"",-73.94434,"",Nassau Ave & Russell St,"",Nassau Ave & Russell St,1,In Service,false,51
3139,"",0,43,"","",2019-06-12T19:17:03.000-07:00,40.77118287540658,"",-73.96409422159195,"",E 72 St & Park Ave,"",E 72 St & Park Ave,1,In Service,false,43
248,"",0,23,"","",2019-06-12T19:16:43.000-07:00,40.72185379,"",-74.00771779,"",Laight St & Hudson St,"",Laight St & Hudson St,1,In Service,false,23
257,"",1,37,"","",2019-06-12T19:17:42.000-07:00,40.71939226,"",-74.00247214,"",Lispenard St & Broadway,"",Lispenard St & Broadway,1,In Service,false,39
405,"",16,31,"","",2019-06-12T19:17:42.000-07:00,40.739323,"",-74.008119,"",Washington St & Gansevoort St,"",Washington St & Gansevoort St,1,In Service,false,51
519,"",0,67,"","",2019-06-12T19:17:43.000-07:00,40.751873,"",-73.977706,"",Pershing Square N,"",Pershing Square N,1,In Service,false,69
3046,"",7,12,"","",2019-06-12T19:17:43.000-07:00,40.682601,"",-73.938037,"",Marcus Garvey Blvd & Macon St,"",Marcus Garvey Blvd & Macon St,1,In Service,false,19
3163,"",0,41,"","",2019-06-12T19:15:51.000-07:00,40.7734066,"",-73.97782542,"",Central Park W & W 68 St,"",Central Park W & W 68 St,1,In Service,false,43
3581,"",7,20,"","",2019-06-12T19:17:01.000-07:00,40.6740123,"",-73.9671457,"",Underhill Ave & Lincoln Pl,"",Underhill Ave & Lincoln Pl,1,In Service,false,27
498,"",0,0,"","",2019-05-06T07:20:17.000-07:00,40.74854862,"",-73.98808416,"",Broadway & W 32 St,"",Broadway & W 32 St,3,Not In Service,false,0
3309,"",0,28,"","",2019-06-12T19:14:15.000-07:00,40.7859201,"",-73.94860294,"",E 97 St & 3 Ave,"",E 97 St & 3 Ave,1,In Service,false,30
3615,"",5,16,"","",2019-06-12T19:16:43.000-07:00,40.748,"",-73.9460927,"",44 Dr & 21 St,"",44 Dr & 21 St,1,In Service,false,21
304,"",1,31,"","",2019-06-12T19:15:54.000-07:00,40.70463334,"",-74.01361706,"",Broadway & Battery Pl,"",Broadway & Battery Pl,1,In Service,false,33
307,"",7,18,"","",2019-06-12T19:17:16.000-07:00,40.71427487,"",-73.98990025,"",Canal St & Rutgers St,"",Canal St & Rutgers St,1,In Service,false,30
462,"",6,38,"","",2019-06-12T19:14:06.000-07:00,40.74691959,"",-74.00451887,"",W 22 St & 10 Ave,"",W 22 St & 10 Ave,1,In Service,false,47
3300,"",25,0,"","",2019-06-12T19:17:33.000-07:00,40.66514681533792,"",-73.97637605667114,"",Prospect Park W & 8 St,"",Prospect Park W & 8 St,1,In Service,false,25
3776,"",23,0,"","",2019-06-12T19:15:31.000-07:00,40.700003,"",-73.92834,"",Central Ave & Starr St.,"",Central Ave & Starr St.,1,In Service,false,23
434,"",13,13,"","",2019-06-12T19:16:37.000-07:00,40.74317449,"",-74.00366443,"",9 Ave & W 18 St,"",9 Ave & W 18 St,1,In Service,false,27
3148,"",29,1,"","",2019-06-12T19:16:10.000-07:00,40.77565541,"",-73.95068615,"",E 84 St & 1 Ave,"",E 84 St & 1 Ave,1,In Service,false,31
3518,"",20,13,"","",2019-06-12T19:15:07.000-07:00,40.808442,"",-73.9452087,"",Lenox Ave & W 126 St,"",Lenox Ave & W 126 St,1,In Service,false,34
3619,"",7,12,"","",2019-06-12T19:17:17.000-07:00,40.7713615,"",-73.9246145,"",Newtown Ave & 23 St,"",Newtown Ave & 23 St,1,In Service,false,19
3329,"",20,7,"","",2019-06-12T19:16:31.000-07:00,40.6829151,"",-73.99318208,"",Degraw St & Smith St,"",Degraw St & Smith St,1,In Service,false,27
3331,"",24,15,"","",2019-06-12T19:16:25.000-07:00,40.8013434,"",-73.9711457439,"",Riverside Dr & W 104 St,"",Riverside Dr & W 104 St,1,In Service,false,39
3498,"",6,15,"","",2019-06-12T19:17:03.000-07:00,40.7974772,"",-73.9311847,"",Pleasant Ave & E 120 St,"",Pleasant Ave & E 120 St,1,In Service,false,21
319,"",1,32,"","",2019-06-12T19:16:37.000-07:00,40.711066,"",-74.009447,"",Fulton St & Broadway,"",Fulton St & Broadway,1,In Service,false,33
539,"",21,9,"","",2019-06-12T19:16:40.000-07:00,40.71534825,"",-73.96024116,"",Metropolitan Ave & Bedford Ave,"",Metropolitan Ave & Bedford Ave,1,In Service,false,31
3235,"",0,31,"","",2019-06-12T19:16:17.000-07:00,40.752165280621966,"",-73.97992193698882,"",E 41 St & Madison Ave,"",E 41 St & Madison Ave,1,In Service,false,31
3412,"",17,1,"","",2019-06-12T19:16:12.000-07:00,40.6853761,"",-73.98302136,"",Pacific St & Nevins St,"",Pacific St & Nevins St,1,In Service,false,18
3542,"",1,28,"","",2019-06-12T19:17:06.000-07:00,40.8086249,"",-73.9596214,"",Amsterdam Ave & W 119 St,"",Amsterdam Ave & W 119 St,1,In Service,false,29
3361,"",20,1,"","",2019-06-12T19:17:40.000-07:00,40.6740886,"",-73.9787282,"",Carroll St & 6 Ave,"",Carroll St & 6 Ave,1,In Service,false,23
3618,"",9,16,"","",2019-06-12T19:17:04.000-07:00,40.7485,"",-73.941275,"",27 St & Hunter St,"",27 St & Hunter St,1,In Service,false,25
3641,"",0,52,"","",2019-06-12T19:14:38.000-07:00,40.74286877312112,"",-73.98918628692627,"",Broadway & W 25 St,"",Broadway & W 25 St,1,In Service,false,54
377,"",21,24,"","",2019-06-12T19:17:43.000-07:00,40.72243797,"",-74.00566443,"",6 Ave & Canal St,"",6 Ave & Canal St,1,In Service,false,47
3121,"",4,23,"","",2019-06-12T19:15:38.000-07:00,40.74524768,"",-73.94733276,"",Jackson Ave & 46 Rd,"",Jackson Ave & 46 Rd,1,In Service,false,27
3143,"",30,16,"","",2019-06-12T19:16:38.000-07:00,40.77632142182271,"",-73.96427392959595,"",5 Ave & E 78 St,"",5 Ave & E 78 St,1,In Service,false,47
3259,"",4,21,"","",2019-06-12T19:14:40.000-07:00,40.74937024193277,"",-73.99923384189606,"",9 Ave & W 28 St,"",9 Ave & W 28 St,1,In Service,false,27
3314,"",10,21,"","",2019-06-12T19:16:24.000-07:00,40.7937704,"",-73.971888,"",W 95 St & Broadway,"",W 95 St & Broadway,1,In Service,false,32
328,"",1,21,"","",2019-06-12T19:16:25.000-07:00,40.72405549,"",-74.00965965,"",Watts St & Greenwich St,"",Watts St & Greenwich St,1,In Service,false,23
3132,"",0,34,"","",2019-06-12T19:15:53.000-07:00,40.76350532,"",-73.97109243,"",E 59 St & Madison Ave,"",E 59 St & Madison Ave,1,In Service,false,35
3150,"",10,35,"","",2019-06-12T19:15:59.000-07:00,40.77536905,"",-73.94803392,"",E 85 St & York Ave,"",E 85 St & York Ave,1,In Service,false,47
3564,"",0,18,"","",2019-06-12T19:14:37.000-07:00,40.7601853,"",-73.9362726,"",21 St & 36 Ave,"",21 St & 36 Ave,1,In Service,false,19
349,"",29,31,"","",2019-06-12T19:13:55.000-07:00,40.71850211,"",-73.98329859,"",Rivington St & Ridge St,"",Rivington St & Ridge St,1,In Service,false,61
3060,"",6,12,"","",2019-06-12T19:16:12.000-07:00,40.69425403,"",-73.94626915,"",Willoughby Ave & Tompkins Ave,"",Willoughby Ave & Tompkins Ave,1,In Service,false,19
3113,"",14,13,"","",2019-06-12T19:17:01.000-07:00,40.73026,"",-73.95394,"",Greenpoint Ave & Manhattan Ave,"",Greenpoint Ave & Manhattan Ave,1,In Service,false,27
3130,"",7,22,"","",2019-06-12T19:16:54.000-07:00,40.75325964,"",-73.94335788,"",21 St & Queens Plaza N,"",21 St & Queens Plaza N,1,In Service,false,31
3778,"",16,11,"","",2019-06-12T19:14:35.000-07:00,40.7027,"",-73.92095,"",Irving Ave & DeKalb Ave,"",Irving Ave & DeKalb Ave,1,In Service,false,27
368,"",34,2,"","",2019-06-12T19:16:07.000-07:00,40.73038599,"",-74.00214988,"",Carmine St & 6 Ave,"",Carmine St & 6 Ave,1,In Service,false,39
515,"",23,11,"","",2019-06-12T19:17:18.000-07:00,40.76009437,"",-73.99461843,"",W 43 St & 10 Ave,"",W 43 St & 10 Ave,1,In Service,false,35
3162,"",12,26,"","",2019-06-12T19:14:34.000-07:00,40.78339981,"",-73.98093133,"",W 78 St & Broadway,"",W 78 St & Broadway,1,In Service,false,39
461,"",31,24,"","",2019-06-12T19:16:13.000-07:00,40.73587678,"",-73.98205027,"",E 20 St & 2 Ave,"",E 20 St & 2 Ave,1,In Service,false,56
3131,"",1,29,"","",2019-06-12T19:15:24.000-07:00,40.76712840349542,"",-73.96224617958069,"",E 68 St & 3 Ave,"",E 68 St & 3 Ave,1,In Service,false,31
3769,"",16,7,"","",2019-06-12T19:15:14.000-07:00,40.707174,"",-73.93581,"",White St & Johnson Ave,"",White St & Johnson Ave,1,In Service,false,23
252,"",11,21,"","",2019-06-12T19:15:45.000-07:00,40.73226398,"",-73.99852205,"",MacDougal St & Washington Sq,"",MacDougal St & Washington Sq,1,In Service,false,33
419,"",15,8,"","",2019-06-12T19:16:24.000-07:00,40.69580705,"",-73.97355569,"",Carlton Ave & Park Ave,"",Carlton Ave & Park Ave,1,In Service,false,23
3449,"",10,7,"","",2019-06-12T19:17:42.000-07:00,40.721462562298164,"",-73.94800901412964,"",Eckford St & Engert Ave,"",Eckford St & Engert Ave,1,In Service,false,18
3456,"",2,20,"","",2019-06-12T19:16:26.000-07:00,40.71638031973561,"",-73.94821286201477,"",Jackson St & Leonard St,"",Jackson St & Leonard St,1,In Service,false,22
3571,"",7,16,"","",2019-06-12T19:17:36.000-07:00,40.676368,"",-73.952918,"",Bedford Ave & Bergen St,"",Bedford Ave & Bergen St,1,In Service,false,24
3622,"",6,9,"","",2019-06-12T19:14:15.000-07:00,40.80756,"",-73.939182,"",E 128 St & Madison Ave,"",E 128 St & Madison Ave,1,In Service,false,15
120,"",12,7,"","",2019-06-12T19:17:25.000-07:00,40.68676793,"",-73.95928168,"",Lexington Ave & Classon Ave,"",Lexington Ave & Classon Ave,1,In Service,false,19
423,"",1,25,"","",2019-06-12T19:15:52.000-07:00,40.76584941,"",-73.98690506,"",W 54 St & 9 Ave,"",W 54 St & 9 Ave,1,In Service,false,27
485,"",0,40,"","",2019-06-12T19:14:36.000-07:00,40.75038009,"",-73.98338988,"",W 37 St & 5 Ave,"",W 37 St & 5 Ave,1,In Service,false,40
500,"",1,49,"","",2019-06-12T19:17:38.000-07:00,40.76228826,"",-73.98336183,"",Broadway & W 51 St,"",Broadway & W 51 St,1,In Service,false,52
3095,"",2,24,"","",2019-06-12T19:14:32.000-07:00,40.71929301,"",-73.94500379,"",Graham Ave & Herbert St,"",Graham Ave & Herbert St,1,In Service,false,26
3063,"",13,7,"","",2019-06-12T19:16:09.000-07:00,40.69527008,"",-73.95238108,"",Nostrand Ave & Myrtle Ave,"",Nostrand Ave & Myrtle Ave,1,In Service,false,20
3349,"",16,10,"","",2019-06-12T19:16:31.000-07:00,40.6729679,"",-73.97087984,"",Grand Army Plaza & Plaza St W,"",Grand Army Plaza & Plaza St W,1,In Service,false,30
3417,"",26,0,"","",2019-06-12T19:16:33.000-07:00,40.6795766,"",-73.97854971,"",Baltic St & 5 Ave,"",Baltic St & 5 Ave,1,In Service,false,27
3526,"",1,26,"","",2019-06-12T19:15:04.000-07:00,40.7747878,"",-73.9125551,"",31 St & 23 Ave,"",31 St & 23 Ave,1,In Service,false,27
3543,"",0,35,"","",2019-06-12T19:14:31.000-07:00,40.81028506306003,"",-73.95736455917358,"",Morningside Dr & Amsterdam Ave,"",Morningside Dr & Amsterdam Ave,1,In Service,false,35
361,"",31,4,"","",2019-06-12T19:17:34.000-07:00,40.71605866,"",-73.99190759,"",Allen St & Hester St,"",Allen St & Hester St,1,In Service,false,43
3049,"",6,11,"","",2019-06-12T19:17:32.000-07:00,40.68488,"",-73.96304,"",Cambridge Pl & Gates Ave,"",Cambridge Pl & Gates Ave,1,In Service,false,18
3151,"",18,24,"","",2019-06-12T19:14:41.000-07:00,40.7728384,"",-73.94989233,"",E 81 St & York Ave,"",E 81 St & York Ave,1,In Service,false,43
3364,"",26,0,"","",2019-06-12T19:14:29.000-07:00,40.6751622,"",-73.9814832,"",Carroll St & 5 Ave,"",Carroll St & 5 Ave,1,In Service,false,27
3517,"",1,33,"","",2019-06-12T19:15:12.000-07:00,40.7711528,"",-73.9170074,"",31 St & Hoyt Ave N,"",31 St & Hoyt Ave N,1,In Service,false,35
3561,"",5,21,"","",2019-06-12T19:14:10.000-07:00,40.7531106,"",-73.9279917,"",37 Ave & 35 St,"",37 Ave & 35 St,1,In Service,false,26
364,"",15,12,"","",2019-06-12T19:16:33.000-07:00,40.68900443,"",-73.96023854,"",Lafayette Ave & Classon Ave,"",Lafayette Ave & Classon Ave,1,In Service,false,27
501,"",48,28,"","",2019-06-12T19:16:56.000-07:00,40.744219,"",-73.97121214,"",FDR Drive & E 35 St,"",FDR Drive & E 35 St,1,In Service,false,78
3207,"",13,11,"","",2019-06-12T19:16:09.000-07:00,40.7376037,"",-74.0524783,"",Oakland Ave,"",Oakland Ave,1,In Service,false,26
3236,"",21,11,"","",2019-06-12T19:17:39.000-07:00,40.75898481399634,"",-73.99379968643188,"",W 42 St & Dyer Ave,"",W 42 St & Dyer Ave,1,In Service,false,33
3320,"",21,26,"","",2019-06-12T19:14:08.000-07:00,40.79406660818552,"",-73.96286845207214,"",Central Park W & W 100 St,"",Central Park W & W 100 St,1,In Service,false,49
3521,"",3,26,"","",2019-06-12T19:17:38.000-07:00,40.7987859,"",-73.9523,"",Lenox Ave & W 111 St,"",Lenox Ave & W 111 St,1,In Service,false,32
356,"",13,9,"","",2019-06-12T19:15:53.000-07:00,40.71622644,"",-73.98261206,"",Bialystoker Pl & Delancey St,"",Bialystoker Pl & Delancey St,1,In Service,false,23
403,"",28,3,"","",2019-06-12T19:16:51.000-07:00,40.72502876,"",-73.99069656,"",E 2 St & 2 Ave,"",E 2 St & 2 Ave,1,In Service,false,31
490,"",4,60,"","",2019-06-12T19:16:33.000-07:00,40.751551,"",-73.993934,"",8 Ave & W 33 St,"",8 Ave & W 33 St,1,In Service,false,66
2009,"",28,5,"","",2019-06-12T19:17:39.000-07:00,40.71117444,"",-73.99682619,"",Catherine St & Monroe St,"",Catherine St & Monroe St,1,In Service,false,35
2010,"",0,0,"","",2019-03-14T12:44:05.000-07:00,40.72165481,"",-74.00234737,"",Grand St & Greene St,"",Grand St & Greene St,3,Not In Service,false,0
3528,"",10,10,"","",2019-06-12T19:15:06.000-07:00,40.7713937,"",-73.9077436,"",Steinway St & 23 Ave,"",Steinway St & 23 Ave,1,In Service,false,20
3567,"",2,17,"","",2019-06-12T19:17:29.000-07:00,40.7627442,"",-73.9391141,"",11 St & 35 Ave,"",11 St & 35 Ave,1,In Service,false,19
3616,"",4,20,"","",2019-06-12T19:16:01.000-07:00,40.7656251,"",-73.9136695,"",Steinway St & 28 Ave,"",Steinway St & 28 Ave,1,In Service,false,25
128,"",1,29,"","",2019-06-12T19:17:05.000-07:00,40.72710258,"",-74.00297088,"",MacDougal St & Prince St,"",MacDougal St & Prince St,1,In Service,false,30
497,"",10,56,"","",2019-06-12T19:17:16.000-07:00,40.73704984,"",-73.99009296,"",E 17 St & Broadway,"",E 17 St & Broadway,1,In Service,false,66
3226,"",43,0,"","",2019-06-12T19:16:19.000-07:00,40.78275,"",-73.97137,"",W 82 St & Central Park W,"",W 82 St & Central Park W,1,In Service,false,45
3493,"",5,25,"","",2019-06-12T19:15:12.000-07:00,40.799139,"",-73.9389152,"",E 118 St & 3 Ave,"",E 118 St & 3 Ave,1,In Service,false,31
3647,"",3,20,"","",2019-06-12T19:15:09.000-07:00,40.74128309355993,"",-73.93725872039794,"",48 Ave & 30 Pl,"",48 Ave & 30 Pl,1,In Service,false,23
332,"",34,1,"","",2019-06-12T19:17:24.000-07:00,40.71219906,"",-73.97948148,"",Cherry St,"",Cherry St,1,In Service,false,36
3283,"",14,32,"","",2019-06-12T19:16:42.000-07:00,40.7882213,"",-73.97041561,"",W 89 St & Columbus Ave,"",W 89 St & Columbus Ave,1,In Service,false,47
301,"",24,33,"","",2019-06-12T19:17:38.000-07:00,40.72217444,"",-73.98368779,"",E 2 St & Ave. B,"",E 2 St & Ave. B,1,In Service,false,58
411,"",29,1,"","",2019-06-12T19:15:50.000-07:00,40.72228087,"",-73.97668709,"",E 6 St & Ave. D,"",E 6 St & Ave. D,1,In Service,false,31
3118,"",29,12,"","",2019-06-12T19:16:08.000-07:00,40.73555,"",-73.95284,"",McGuinness Blvd & Eagle St,"",McGuinness Blvd & Eagle St,1,In Service,false,42
3233,"",0,39,"","",2019-06-12T19:16:28.000-07:00,40.75724567911726,"",-73.97805914282799,"",E 48 St & 5 Ave,"",E 48 St & 5 Ave,1,In Service,false,39
3770,"",6,15,"","",2019-06-12T19:16:23.000-07:00,40.702831,"",-73.9333,"",Central Ave & Flushing Ave,"",Central Ave & Flushing Ave,1,In Service,false,21
3165,"",33,17,"","",2019-06-12T19:17:37.000-07:00,40.77579376683666,"",-73.9762057363987,"",Central Park W & W 72 St,"",Central Park W & W 72 St,1,In Service,false,51
460,"",18,6,"","",2019-06-12T19:17:23.000-07:00,40.71285887,"",-73.96590294,"",S 4 St & Wythe Ave,"",S 4 St & Wythe Ave,1,In Service,false,25
2006,"",1,47,"","",2019-06-12T19:17:43.000-07:00,40.76590936,"",-73.97634151,"",Central Park S & 6 Ave,"",Central Park S & 6 Ave,1,In Service,false,49
3048,"",6,12,"","",2019-06-12T19:13:56.000-07:00,40.68402,"",-73.94977,"",Putnam Ave & Nostrand Ave,"",Putnam Ave & Nostrand Ave,1,In Service,false,19
3070,"",10,11,"","",2019-06-12T19:16:27.000-07:00,40.70510918,"",-73.94407279,"",McKibbin St & Manhattan Ave,"",McKibbin St & Manhattan Ave,1,In Service,false,23
3152,"",0,42,"","",2019-06-12T19:16:15.000-07:00,40.76873687,"",-73.96119945,"",3 Ave & E 71 St,"",3 Ave & E 71 St,1,In Service,false,42
3178,"",32,7,"","",2019-06-12T19:15:36.000-07:00,40.78414472,"",-73.98362492,"",Riverside Dr & W 78 St,"",Riverside Dr & W 78 St,1,In Service,false,39
441,"",0,39,"","",2019-06-12T19:16:30.000-07:00,40.756014,"",-73.967416,"",E 52 St & 2 Ave,"",E 52 St & 2 Ave,1,In Service,false,40
448,"",2,24,"","",2019-06-12T19:17:40.000-07:00,40.75660359,"",-73.9979009,"",W 37 St & 10 Ave,"",W 37 St & 10 Ave,1,In Service,false,27
2017,"",0,37,"","",2019-06-12T19:16:53.000-07:00,40.75022392,"",-73.97121414,"",E 43 St & 2 Ave,"",E 43 St & 2 Ave,1,In Service,false,39
3338,"",4,27,"","",2019-06-12T19:15:33.000-07:00,40.7862586,"",-73.94552579,"",2 Ave & E 99 St,"",2 Ave & E 99 St,1,In Service,false,31
3557,"",1,17,"","",2019-06-12T19:16:42.000-07:00,40.75742,"",-73.945133,"",40 Ave & 9 St,"",40 Ave & 9 St,1,In Service,false,19
224,"",2,27,"","",2019-06-12T19:17:35.000-07:00,40.71146364,"",-74.00552427,"",Spruce St & Nassau St,"",Spruce St & Nassau St,1,In Service,false,31
517,"",0,65,"","",2019-06-12T19:15:20.000-07:00,40.751581,"",-73.97791,"",Pershing Square S,"",Pershing Square S,1,In Service,false,69
3115,"",50,0,"","",2019-06-12T19:14:44.000-07:00,40.73232194,"",-73.9550858,"",India St & Manhattan Ave,"",India St & Manhattan Ave,1,In Service,false,50
3282,"",9,26,"","",2019-06-12T19:16:44.000-07:00,40.78307,"",-73.95939,"",5 Ave & E 88 St,"",5 Ave & E 88 St,1,In Service,false,38
3288,"",18,20,"","",2019-06-12T19:17:19.000-07:00,40.778301,"",-73.9488134,"",E 88 St & 1 Ave,"",E 88 St & 1 Ave,1,In Service,false,39
168,"",4,40,"","",2019-06-12T19:17:43.000-07:00,40.73971301,"",-73.99456405,"",W 18 St & 6 Ave,"",W 18 St & 6 Ave,1,In Service,false,47
254,"",16,43,"","",2019-06-12T19:17:21.000-07:00,40.73532427,"",-73.99800419,"",W 11 St & 6 Ave,"",W 11 St & 6 Ave,1,In Service,false,59
324,"",38,10,"","",2019-06-12T19:17:28.000-07:00,40.689888,"",-73.981013,"",DeKalb Ave & Hudson Ave,"",DeKalb Ave & Hudson Ave,1,In Service,false,51
481,"",23,1,"","",2019-06-12T19:14:16.000-07:00,40.71260486,"",-73.96264403,"",S 3 St & Bedford Ave,"",S 3 St & Bedford Ave,1,In Service,false,25
3145,"",12,32,"","",2019-06-12T19:17:37.000-07:00,40.77862688,"",-73.95772073,"",E 84 St & Park Ave,"",E 84 St & Park Ave,1,In Service,false,45
3323,"",36,23,"","",2019-06-12T19:13:53.000-07:00,40.7981856,"",-73.9605909006,"",W 106 St & Central Park W,"",W 106 St & Central Park W,1,In Service,false,59
3379,"",6,29,"","",2019-06-12T19:16:28.000-07:00,40.7903051,"",-73.94755757,"",E 103 St & Lexington Ave,"",E 103 St & Lexington Ave,1,In Service,false,35
3760,"",15,8,"","",2019-06-12T19:17:40.000-07:00,40.705614,"",-73.92153,"",Willoughby Ave & Wyckoff Ave,"",Willoughby Ave & Wyckoff Ave,1,In Service,false,23
247,"",49,3,"","",2019-06-12T19:17:36.000-07:00,40.73535398,"",-74.00483091,"",Perry St & Bleecker St,"",Perry St & Bleecker St,1,In Service,false,54
467,"",27,6,"","",2019-06-12T19:17:38.000-07:00,40.68312489,"",-73.97895137,"",Dean St & 4 Ave,"",Dean St & 4 Ave,1,In Service,false,34
528,"",0,37,"","",2019-06-12T19:16:56.000-07:00,40.74290902,"",-73.97706058,"",2 Ave & E 31 St,"",2 Ave & E 31 St,1,In Service,false,39
3577,"",5,18,"","",2019-06-12T19:16:52.000-07:00,40.7628138,"",-73.9342862,"",34 Ave & 21 St,"",34 Ave & 21 St,1,In Service,false,23
3588,"",5,16,"","",2019-06-12T19:17:10.000-07:00,40.7671863,"",-73.9373554,"",Vernon Blvd & 10 St,"",Vernon Blvd & 10 St,1,In Service,false,21
3209,"",2,20,"","",2019-06-12T19:13:51.000-07:00,40.7241765,"",-74.0506564,"",Brunswick St,"",Brunswick St,1,In Service,false,22
3360,"",20,3,"","",2019-06-12T19:17:09.000-07:00,40.7829391,"",-73.9786517,"",Amsterdam Ave & W 79 St,"",Amsterdam Ave & W 79 St,1,In Service,false,25
3365,"",17,10,"","",2019-06-12T19:14:59.000-07:00,40.6703837,"",-73.97839676,"",3 St & 7 Ave,"",3 St & 7 Ave,1,In Service,false,27
3477,"",19,13,"","",2019-06-12T19:17:12.000-07:00,40.65539977447831,"",-74.01062786579132,"",39 St & 2 Ave - Citi Bike HQ at Industry City,"",39 St & 2 Ave - Citi Bike HQ at Industry City,1,In Service,false,33
3135,"",4,37,"","",2019-06-12T19:17:17.000-07:00,40.77112927,"",-73.95772297,"",E 75 St & 3 Ave,"",E 75 St & 3 Ave,1,In Service,false,41
3290,"",9,26,"","",2019-06-12T19:17:11.000-07:00,40.7779453,"",-73.946041,"",E 89 St & York Ave,"",E 89 St & York Ave,1,In Service,false,35
3377,"",25,0,"","",2019-06-12T19:14:01.000-07:00,40.6786115,"",-73.99037292,"",Carroll St & Bond St,"",Carroll St & Bond St,1,In Service,false,25
339,"",27,3,"","",2019-06-12T19:14:57.000-07:00,40.72580614,"",-73.97422494,"",Ave. D & E 12 St,"",Ave. D & E 12 St,1,In Service,false,30
3211,"",1,20,"","",2019-06-12T19:17:00.000-07:00,40.72152515,"",-74.046304543,"",Newark Ave,"",Newark Ave,1,In Service,false,22
3294,"",2,35,"","",2019-06-12T19:17:31.000-07:00,40.7835016,"",-73.955327,"",E 91 St & Park Ave,"",E 91 St & Park Ave,1,In Service,false,38
3537,"",7,21,"","",2019-06-12T19:17:35.000-07:00,40.6809741,"",-73.9710097,"",Carlton Ave & Dean St,"",Carlton Ave & Dean St,1,In Service,false,29
3771,"",13,12,"","",2019-06-12T19:16:05.000-07:00,40.706237,"",-73.933871,"",McKibbin St & Bogart St,"",McKibbin St & Bogart St,1,In Service,false,30
309,"",1,39,"","",2019-06-12T19:16:35.000-07:00,40.7149787,"",-74.013012,"",Murray St & W St,"",Murray St & W St,1,In Service,false,41
392,"",21,12,"","",2019-06-12T19:16:17.000-07:00,40.695065,"",-73.987167,"",Jay St & Tech Pl,"",Jay St & Tech Pl,1,In Service,false,35
471,"",5,23,"","",2019-06-12T19:17:24.000-07:00,40.71286844,"",-73.95698119,"",Grand St & Havemeyer St,"",Grand St & Havemeyer St,1,In Service,false,31
540,"",0,27,"","",2019-06-12T19:17:43.000-07:00,40.74311555376486,"",-73.98215353488922,"",Lexington Ave & E 29 St,"",Lexington Ave & E 29 St,1,In Service,false,30
3072,"",7,17,"","",2019-06-12T19:14:49.000-07:00,40.70583339,"",-73.94644578,"",Leonard St & Boerum St,"",Leonard St & Boerum St,1,In Service,false,24
3563,"",2,27,"","",2019-06-12T19:13:45.000-07:00,40.757186,"",-73.932719,"",28 St & 36 Ave,"",28 St & 36 Ave,1,In Service,false,29
3701,"",2,33,"","",2019-06-12T19:15:27.000-07:00,40.70831794366396,"",-74.00504082441329,"",Cliff St & Fulton St,"",Cliff St & Fulton St,1,In Service,false,37
3757,"",13,9,"","",2019-06-12T19:16:38.000-07:00,40.710681,"",-73.93372,"",Stagg St & Morgan Ave,"",Stagg St & Morgan Ave,1,In Service,false,23
127,"",29,1,"","",2019-06-12T19:17:43.000-07:00,40.73172428,"",-74.00674436,"",Barrow St & Hudson St,"",Barrow St & Hudson St,1,In Service,false,31
3782,"",29,2,"","",2019-06-12T19:16:51.000-07:00,40.698458,"",-73.997178,"",Brooklyn Bridge Park - Pier 2,"",Brooklyn Bridge Park - Pier 2,1,In Service,false,31
3170,"",35,0,"","",2019-06-12T19:14:53.000-07:00,40.78499979,"",-73.97283406,"",W 84 St & Columbus Ave,"",W 84 St & Columbus Ave,1,In Service,false,35
3454,"",9,14,"","",2019-06-12T19:16:20.000-07:00,40.7103685423523,"",-73.94705951213837,"",Leonard St & Maujer St,"",Leonard St & Maujer St,1,In Service,false,24
3141,"",1,54,"","",2019-06-12T19:15:36.000-07:00,40.76500525,"",-73.95818491,"",1 Ave & E 68 St,"",1 Ave & E 68 St,1,In Service,false,59
3369,"",12,15,"","",2019-06-12T19:17:39.000-07:00,40.7724607,"",-73.9468208,"",E 82 St & E End Ave,"",E 82 St & E End Ave,1,In Service,false,29
3459,"",0,33,"","",2019-06-12T19:17:11.000-07:00,40.75763227739443,"",-73.96930575370789,"",E 53 St & 3 Ave,"",E 53 St & 3 Ave,1,In Service,false,34
3524,"",8,13,"","",2019-06-12T19:15:44.000-07:00,40.7774552,"",-73.9225403,"",19 St & 24 Ave,"",19 St & 24 Ave,1,In Service,false,23
323,"",9,29,"","",2019-06-12T19:17:23.000-07:00,40.69236178,"",-73.98631746,"",Lawrence St & Willoughby St,"",Lawrence St & Willoughby St,1,In Service,false,39
3016,"",44,8,"","",2019-06-12T19:17:20.000-07:00,40.72036775298455,"",-73.96165072917938,"",Kent Ave & N 7 St,"",Kent Ave & N 7 St,1,In Service,false,54
249,"",0,27,"","",2019-06-12T19:17:28.000-07:00,40.71870987,"",-74.0090009,"",Harrison St & Hudson St,"",Harrison St & Hudson St,1,In Service,false,27
383,"",36,1,"","",2019-06-12T19:17:36.000-07:00,40.735238,"",-74.000271,"",Greenwich Ave & Charles St,"",Greenwich Ave & Charles St,1,In Service,false,39
3119,"",0,45,"","",2019-06-12T19:17:33.000-07:00,40.74232744,"",-73.95411749,"",Vernon Blvd & 50 Ave,"",Vernon Blvd & 50 Ave,1,In Service,false,45
3256,"",5,17,"","",2019-06-12T19:16:46.000-07:00,40.7277140777778,"",-74.01129573583603,"",Pier 40 - Hudson River Park,"",Pier 40 - Hudson River Park,1,In Service,false,23
3419,"",27,0,"","",2019-06-12T19:15:24.000-07:00,40.6792788,"",-73.98154004,"",Douglass St & 4 Ave,"",Douglass St & 4 Ave,1,In Service,false,27
3520,"",14,11,"","",2019-06-12T19:14:55.000-07:00,40.804372,"",-73.951475,"",Adam Clayton Powell Blvd & W 118 St,"",Adam Clayton Powell Blvd & W 118 St,1,In Service,false,27
3598,"",1,18,"","",2019-06-12T19:17:17.000-07:00,40.7595701,"",-73.9142678,"",Newton Rd & 44 St,"",Newton Rd & 44 St,1,In Service,false,19
3777,"",16,7,"","",2019-06-12T19:16:09.000-07:00,40.699304,"",-73.923044,"",Stockholm St & Wilson Ave,"",Stockholm St & Wilson Ave,1,In Service,false,23
303,"",39,24,"","",2019-06-12T19:17:26.000-07:00,40.72362738,"",-73.99949601,"",Mercer St & Spring St,"",Mercer St & Spring St,1,In Service,false,67
3127,"",15,20,"","",2019-06-12T19:17:12.000-07:00,40.74966,"",-73.9521,"",9 St & 44 Rd,"",9 St & 44 Rd,1,In Service,false,35
3167,"",0,38,"","",2019-06-12T19:14:30.000-07:00,40.77966809007312,"",-73.98093044757842,"",Amsterdam Ave & W 73 St,"",Amsterdam Ave & W 73 St,1,In Service,false,55
3285,"",14,29,"","",2019-06-12T19:15:27.000-07:00,40.78839,"",-73.9747,"",W 87 St & Amsterdam Ave,"",W 87 St & Amsterdam Ave,1,In Service,false,43
379,"",1,35,"","",2019-06-12T19:17:38.000-07:00,40.749156,"",-73.9916,"",W 31 St & 7 Ave,"",W 31 St & 7 Ave,1,In Service,false,42
3169,"",36,1,"","",2019-06-12T19:14:07.000-07:00,40.78720869,"",-73.98128127,"",Riverside Dr & W 82 St,"",Riverside Dr & W 82 St,1,In Service,false,39
3182,"",35,4,"","",2019-06-12T19:16:02.000-07:00,40.686931,"",-74.016966,"",Yankee Ferry Terminal,"",Yankee Ferry Terminal,1,In Service,false,42
3357,"",8,26,"","",2019-06-12T19:16:18.000-07:00,40.8008363,"",-73.9664492472,"",W 106 St & Amsterdam Ave,"",W 106 St & Amsterdam Ave,1,In Service,false,35
3415,"",15,10,"","",2019-06-12T19:15:50.000-07:00,40.6793307,"",-73.97519523,"",Prospect Pl & 6 Ave,"",Prospect Pl & 6 Ave,1,In Service,false,25
3522,"",3,16,"","",2019-06-12T19:17:30.000-07:00,40.7701477,"",-73.9120938,"",37 St & 24 Ave,"",37 St & 24 Ave,1,In Service,false,19
3726,"",17,3,"","",2019-06-12T19:16:01.000-07:00,40.743366080270214,"",-73.95960688591003,"",Center Blvd & 51 Ave,"",Center Blvd & 51 Ave,1,In Service,false,20
3057,"",6,12,"","",2019-06-12T19:13:50.000-07:00,40.69128258,"",-73.9452416,"",Kosciuszko St & Tompkins Ave,"",Kosciuszko St & Tompkins Ave,1,In Service,false,18
3590,"",12,6,"","",2019-06-12T19:13:57.000-07:00,40.6679411,"",-73.9588,"",Carroll St & Franklin Ave,"",Carroll St & Franklin Ave,1,In Service,false,19
337,"",0,36,"","",2019-06-12T19:15:39.000-07:00,40.7037992,"",-74.00838676,"",Old Slip & Front St,"",Old Slip & Front St,1,In Service,false,37
440,"",0,32,"","",2019-06-12T19:15:11.000-07:00,40.75255434,"",-73.97282625,"",E 45 St & 3 Ave,"",E 45 St & 3 Ave,1,In Service,false,32
454,"",0,31,"","",2019-06-12T19:17:43.000-07:00,40.75455731,"",-73.96592976,"",E 51 St & 1 Ave,"",E 51 St & 1 Ave,1,In Service,false,34
473,"",30,8,"","",2019-06-12T19:17:43.000-07:00,40.72110063,"",-73.9919254,"",Rivington St & Chrystie St,"",Rivington St & Chrystie St,1,In Service,false,38
3503,"",2,25,"","",2019-06-12T19:17:14.000-07:00,40.80295,"",-73.942954,"",Madison Ave & E 120 St,"",Madison Ave & E 120 St,1,In Service,false,30
3679,"",6,8,"","",2019-06-12T19:14:09.000-07:00,40.722103786686034,"",-74.07145500183105,"",Bergen Ave,"",Bergen Ave,1,In Service,false,14
3041,"",5,18,"","",2019-06-12T19:17:09.000-07:00,40.67890679,"",-73.94142771,"",Kingston Ave & Herkimer St,"",Kingston Ave & Herkimer St,1,In Service,false,24
3724,"",0,38,"","",2019-06-12T19:16:09.000-07:00,40.7667405590595,"",-73.9790689945221,"",7 Ave & Central Park S,"",7 Ave & Central Park S,1,In Service,false,39
3112,"",14,12,"","",2019-06-12T19:17:02.000-07:00,40.72906,"",-73.95779,"",Milton St & Franklin St,"",Milton St & Franklin St,1,In Service,false,33
3332,"",17,2,"","",2019-06-12T19:14:06.000-07:00,40.681990442707026,"",-73.99079024791718,"",Degraw St & Hoyt St,"",Degraw St & Hoyt St,1,In Service,false,19
3392,"",10,7,"","",2019-06-12T19:16:05.000-07:00,40.6812117,"",-74.00860912,"",Commerce St & Van Brunt St,"",Commerce St & Van Brunt St,1,In Service,false,19
3547,"",7,30,"","",2019-06-12T19:13:48.000-07:00,40.8143256,"",-73.9590255,"",Broadway & Moylan Pl,"",Broadway & Moylan Pl,1,In Service,false,41
3709,"",0,0,"","",2019-05-29T08:05:05.000-07:00,40.738046142482766,"",-73.99642959237099,"",W 15 St & 6 Ave,"",W 15 St & 6 Ave,3,Not In Service,false,0
435,"",0,43,"","",2019-05-29T09:39:30.000-07:00,40.74173969,"",-73.99415556,"",W 21 St & 6 Ave,"",W 21 St & 6 Ave,3,Not In Service,false,46
3383,"",2,21,"","",2019-06-12T19:17:40.000-07:00,40.804213,"",-73.96699104,"",Cathedral Pkwy & Broadway,"",Cathedral Pkwy & Broadway,1,In Service,false,25
3699,"",0,28,"","",2019-06-12T19:16:48.000-07:00,40.763604677958625,"",-73.98917958140373,"",W 50 St & 9 Ave,"",W 50 St & 9 Ave,1,In Service,false,30
382,"",4,26,"","",2019-06-12T19:17:20.000-07:00,40.73492695,"",-73.99200509,"",University Pl & E 14 St,"",University Pl & E 14 St,1,In Service,false,33
478,"",28,9,"","",2019-06-12T19:11:33.000-07:00,40.76030096,"",-73.99884222,"",11 Ave & W 41 St,"",11 Ave & W 41 St,1,In Service,false,37
482,"",38,35,"","",2019-06-12T19:16:46.000-07:00,40.73935542,"",-73.99931783,"",W 15 St & 7 Ave,"",W 15 St & 7 Ave,1,In Service,false,77
3546,"",1,20,"","",2019-06-12T19:16:13.000-07:00,40.6791944,"",-73.9587903,"",Pacific St & Classon Ave,"",Pacific St & Classon Ave,1,In Service,false,21
3587,"",23,4,"","",2019-06-12T19:16:20.000-07:00,40.6686744,"",-73.9618148,"",Carroll St & Washington Ave,"",Carroll St & Washington Ave,1,In Service,false,27
3083,"",3,29,"","",2019-06-12T19:14:31.000-07:00,40.71247661,"",-73.94100005,"",Bushwick Ave & Powers St,"",Bushwick Ave & Powers St,1,In Service,false,32
3263,"",4,53,"","",2019-06-12T19:17:20.000-07:00,40.72951496224949,"",-73.99075269699097,"",Cooper Square & Astor Pl,"",Cooper Square & Astor Pl,1,In Service,false,59
3429,"",30,7,"","",2019-06-12T19:15:19.000-07:00,40.68506807308177,"",-73.97790759801863,"",Hanson Pl & Ashland Pl,"",Hanson Pl & Ashland Pl,1,In Service,false,39
3544,"",8,19,"","",2019-06-12T19:16:23.000-07:00,40.6804836,"",-73.9646795,"",Underhill Ave & Pacific St,"",Underhill Ave & Pacific St,1,In Service,false,27
83,"",30,29,"","",2019-06-12T19:17:15.000-07:00,40.68382604,"",-73.97632328,"",Atlantic Ave & Fort Greene Pl,"",Atlantic Ave & Fort Greene Pl,1,In Service,false,62
362,"",0,57,"","",2019-06-12T19:16:02.000-07:00,40.75172632,"",-73.98753523,"",Broadway & W 37 St,"",Broadway & W 37 St,1,In Service,false,57
3059,"",0,18,"","",2019-06-12T19:15:35.000-07:00,40.6933982,"",-73.939877,"",Pulaski St & Marcus Garvey Blvd,"",Pulaski St & Marcus Garvey Blvd,1,In Service,false,19
3601,"",19,0,"","",2019-06-12T19:17:02.000-07:00,40.6627059,"",-73.9569115,"",Sterling St & Bedford Ave,"",Sterling St & Bedford Ave,1,In Service,false,19
3690,"",0,35,"","",2019-06-12T19:16:18.000-07:00,40.71334184275907,"",-74.00935515761375,"",Park Pl & Church St,"",Park Pl & Church St,1,In Service,false,36
491,"",6,44,"","",2019-06-12T19:17:40.000-07:00,40.74096374,"",-73.98602213,"",E 24 St & Park Ave S,"",E 24 St & Park Ave S,1,In Service,false,51
2003,"",40,13,"","",2019-06-12T19:16:50.000-07:00,40.733812191966315,"",-73.98054420948029,"",1 Ave & E 18 St,"",1 Ave & E 18 St,1,In Service,false,54
3242,"",21,17,"","",2019-06-12T19:14:00.000-07:00,40.69102925677968,"",-73.99183362722397,"",Schermerhorn St & Court St,"",Schermerhorn St & Court St,1,In Service,false,39
3659,"",0,0,"","",2019-03-11T10:27:40.000-07:00,40.74294891660091,"",-74.00413691997528,"",W 17 St & 9 Ave,"",W 17 St & 9 Ave,3,Not In Service,false,0
3691,"",3,16,"","",2019-06-12T19:15:43.000-07:00,40.76408932350688,"",-73.91065120697021,"",28 Ave & 44 St,"",28 Ave & 44 St,1,In Service,false,19
295,"",8,15,"","",2019-06-12T19:14:18.000-07:00,40.71406667,"",-73.99293911,"",Pike St & E Broadway,"",Pike St & E Broadway,1,In Service,false,24
355,"",17,26,"","",2019-06-12T19:17:20.000-07:00,40.71602118,"",-73.99974372,"",Bayard St & Baxter St,"",Bayard St & Baxter St,1,In Service,false,43
3270,"",9,4,"","",2019-06-12T19:16:01.000-07:00,40.72528910781132,"",-74.04557168483734,"",Jersey & 6th St,"",Jersey & 6th St,1,In Service,false,14
3556,"",3,14,"","",2019-06-12T19:16:19.000-07:00,40.7527085,"",-73.9397405,"",24 St & 41 Ave,"",24 St & 41 Ave,1,In Service,false,19
3185,"",4,18,"","",2019-06-12T19:15:13.000-07:00,40.7177325,"",-74.043845,"",City Hall,"",City Hall,1,In Service,false,22
3277,"",3,10,"","",2019-06-12T19:17:10.000-07:00,40.71435836870427,"",-74.06661093235016,"",Communipaw & Berry Lane,"",Communipaw & Berry Lane,1,In Service,false,14
3523,"",0,24,"","",2019-06-12T19:15:24.000-07:00,40.7729,"",-73.916142,"",24 Ave & 29 St,"",24 Ave & 29 St,1,In Service,false,25
373,"",10,9,"","",2019-06-12T19:17:12.000-07:00,40.69331716,"",-73.95381995,"",Willoughby Ave & Walworth St,"",Willoughby Ave & Walworth St,1,In Service,false,19
3268,"",7,7,"","",2019-06-12T19:14:35.000-07:00,40.71346382669195,"",-74.06285852193832,"",Lafayette Park,"",Lafayette Park,1,In Service,false,14
280,"",9,21,"","",2019-06-12T19:17:36.000-07:00,40.73331967,"",-73.99510132,"",E 10 St & 5 Ave,"",E 10 St & 5 Ave,1,In Service,false,31
390,"",5,23,"","",2019-06-12T19:15:10.000-07:00,40.69221589,"",-73.9842844,"",Duffield St & Willoughby St,"",Duffield St & Willoughby St,1,In Service,false,31
492,"",28,38,"","",2019-06-12T19:17:26.000-07:00,40.75019995,"",-73.99093085,"",W 33 St & 7 Ave,"",W 33 St & 7 Ave,1,In Service,false,68
2002,"",19,7,"","",2019-06-12T19:16:48.000-07:00,40.716887,"",-73.963198,"",Wythe Ave & Metropolitan Ave,"",Wythe Ave & Metropolitan Ave,1,In Service,false,27
3086,"",9,21,"","",2019-06-12T19:15:06.000-07:00,40.715143,"",-73.944507,"",Graham Ave & Conselyea St,"",Graham Ave & Conselyea St,1,In Service,false,30
3515,"",6,13,"","",2019-06-12T19:17:37.000-07:00,40.774591,"",-73.918544,"",24 Ave & 26 St,"",24 Ave & 26 St,1,In Service,false,19
3630,"",8,25,"","",2019-06-12T19:13:51.000-07:00,40.8038654,"",-73.9559308,"",Frederick Douglass Blvd & W 115 St,"",Frederick Douglass Blvd & W 115 St,1,In Service,false,33
334,"",2,25,"","",2019-06-12T19:16:52.000-07:00,40.74238787,"",-73.99726235,"",W 20 St & 7 Ave,"",W 20 St & 7 Ave,1,In Service,false,31
3134,"",0,50,"","",2019-06-12T19:16:45.000-07:00,40.76312584,"",-73.96526895,"",3 Ave & E 62 St,"",3 Ave & E 62 St,1,In Service,false,51
3184,"",0,14,"","",2019-06-12T19:15:44.000-07:00,40.7141454,"",-74.0335519,"",Paulus Hook,"",Paulus Hook,1,In Service,false,14
3400,"",8,16,"","",2019-06-12T19:14:28.000-07:00,40.7961535,"",-73.94782145,"",E 110 St & Madison Ave,"",E 110 St & Madison Ave,1,In Service,false,24
3483,"",3,11,"","",2019-06-12T19:17:11.000-07:00,40.71942,"",-74.05099,"",Montgomery St,"",Montgomery St,1,In Service,false,14
3087,"",1,29,"","",2019-06-12T19:16:34.000-07:00,40.71413311,"",-73.95234386,"",Metropolitan Ave & Meeker Ave,"",Metropolitan Ave & Meeker Ave,1,In Service,false,30
331,"",16,10,"","",2019-06-12T19:17:33.000-07:00,40.71173107,"",-73.99193043,"",Pike St & Monroe St,"",Pike St & Monroe St,1,In Service,false,27
3109,"",25,5,"","",2019-06-12T19:14:56.000-07:00,40.72606,"",-73.95621,"",Banker St & Meserole Ave,"",Banker St & Meserole Ave,1,In Service,false,31
3411,"",26,1,"","",2019-06-12T19:15:21.000-07:00,40.6849668,"",-73.98620772,"",Bond St & Bergen St,"",Bond St & Bergen St,1,In Service,false,27
3413,"",20,1,"","",2019-06-12T19:17:11.000-07:00,40.6827549,"",-73.98258555,"",Wyckoff St & 3 Ave,"",Wyckoff St & 3 Ave,1,In Service,false,22
3611,"",12,19,"","",2019-06-12T19:15:42.000-07:00,40.7449067,"",-73.9534573,"",Vernon Blvd & 47 Rd,"",Vernon Blvd & 47 Rd,1,In Service,false,31
480,"",0,28,"","",2019-06-12T19:17:16.000-07:00,40.76669671,"",-73.99061728,"",W 53 St & 10 Ave,"",W 53 St & 10 Ave,1,In Service,false,29
3117,"",13,11,"","",2019-06-12T19:14:31.000-07:00,40.73564,"",-73.95866,"",Franklin St & Dupont St,"",Franklin St & Dupont St,1,In Service,false,27
3572,"",8,23,"","",2019-06-12T19:14:57.000-07:00,40.756913,"",-73.921631,"",34 Ave & 38 St,"",34 Ave & 38 St,1,In Service,false,33
437,"",10,13,"","",2019-06-12T19:17:41.000-07:00,40.6809833854,"",-73.9500479759,"",Macon St & Nostrand Ave,"",Macon St & Nostrand Ave,1,In Service,false,24
514,"",16,30,"","",2019-06-12T19:17:06.000-07:00,40.76087502,"",-74.00277668,"",12 Ave & W 40 St,"",12 Ave & W 40 St,1,In Service,false,52
3637,"",16,14,"","",2019-06-12T19:17:13.000-07:00,40.683238654603414,"",-73.96599590778351,"",Fulton St & Waverly Ave,"",Fulton St & Waverly Ave,1,In Service,false,31
3767,"",3,16,"","",2019-06-12T19:13:52.000-07:00,40.71323,"",-73.93894,"",Powers St & Olive St,"",Powers St & Olive St,1,In Service,false,19
507,"",11,31,"","",2019-06-12T19:17:06.000-07:00,40.73912601,"",-73.97973776,"",E 25 St & 2 Ave,"",E 25 St & 2 Ave,1,In Service,false,45
3203,"",18,8,"","",2019-06-12T19:16:04.000-07:00,40.727595966,"",-74.044247311,"",Hamilton Park,"",Hamilton Park,1,In Service,false,26
3762,"",25,1,"","",2019-06-12T19:16:00.000-07:00,40.677027,"",-73.9865,"",3 Ave & Carroll St,"",3 Ave & Carroll St,1,In Service,false,27
260,"",0,33,"","",2019-06-12T19:16:55.000-07:00,40.70365182,"",-74.01167797,"",Broad St & Bridge St,"",Broad St & Bridge St,1,In Service,false,33
468,"",0,0,"","",2019-05-17T10:23:06.000-07:00,40.7652654,"",-73.98192338,"",Broadway & W 56 St,"",Broadway & W 56 St,3,Not In Service,false,0
3255,"",16,2,"","",2019-06-12T19:17:42.000-07:00,40.7505853470215,"",-73.9946848154068,"",8 Ave & W 31 St,"",8 Ave & W 31 St,1,In Service,false,19
3599,"",26,0,"","",2019-06-12T19:17:05.000-07:00,40.66314,"",-73.9605695,"",Franklin Ave & Empire Blvd,"",Franklin Ave & Empire Blvd,1,In Service,false,27
3052,"",9,14,"","",2019-06-12T19:15:21.000-07:00,40.686312,"",-73.935775,"",Lewis Ave & Madison St,"",Lewis Ave & Madison St,1,In Service,false,23
3249,"",8,11,"","",2019-06-12T19:16:52.000-07:00,40.6803560840434,"",-73.9476791024208,"",Verona Pl & Fulton St,"",Verona Pl & Fulton St,1,In Service,false,19
3416,"",2,21,"","",2019-06-12T19:14:55.000-07:00,40.6776147,"",-73.97324283,"",7 Ave & Park Pl,"",7 Ave & Park Pl,1,In Service,false,25
3494,"",2,21,"","",2019-06-12T19:14:53.000-07:00,40.797911,"",-73.9423,"",E 115 St & Lexington Ave,"",E 115 St & Lexington Ave,1,In Service,false,25
3555,"",2,24,"","",2019-06-12T19:16:54.000-07:00,40.751047,"",-73.93797,"",28 St & 41 Ave,"",28 St & 41 Ave,1,In Service,false,27
3562,"",25,2,"","",2019-06-12T19:13:54.000-07:00,40.6765198,"",-73.9596082,"",Classon Ave & St Marks Ave,"",Classon Ave & St Marks Ave,1,In Service,false,27
3673,"",4,17,"","",2019-06-12T19:14:31.000-07:00,40.67759206937376,"",-73.955637216568,"",Dean St & Franklin Ave,"",Dean St & Franklin Ave,1,In Service,false,21
3674,"",17,7,"","",2019-06-12T19:17:09.000-07:00,40.701403172577244,"",-73.98672670125961,"",Jay St & York St,"",Jay St & York St,1,In Service,false,27
321,"",0,26,"","",2019-06-12T19:14:25.000-07:00,40.69991755,"",-73.98971773,"",Cadman Plaza E & Red Cross Pl,"",Cadman Plaza E & Red Cross Pl,1,In Service,false,27
327,"",7,29,"","",2019-06-12T19:16:55.000-07:00,40.7153379,"",-74.01658354,"",Vesey Pl & River Terrace,"",Vesey Pl & River Terrace,1,In Service,false,39
380,"",38,0,"","",2019-06-12T19:15:46.000-07:00,40.73401143,"",-74.00293877,"",W 4 St & 7 Ave S,"",W 4 St & 7 Ave S,1,In Service,false,42
400,"",8,7,"","",2019-06-12T19:14:41.000-07:00,40.71926081,"",-73.98178024,"",Pitt St & Stanton St,"",Pitt St & Stanton St,1,In Service,false,15
3160,"",38,0,"","",2019-06-12T19:16:35.000-07:00,40.77896784,"",-73.97374737,"",Central Park W & W 76 St,"",Central Park W & W 76 St,1,In Service,false,39
3370,"",7,18,"","",2019-06-12T19:16:10.000-07:00,40.7727966,"",-73.95577801,"",E 78 St & 2 Ave,"",E 78 St & 2 Ave,1,In Service,false,25
3727,"",26,12,"","",2019-06-12T19:16:54.000-07:00,40.71766197083994,"",-73.94880026578903,"",Frost St & Meeker Ave,"",Frost St & Meeker Ave,1,In Service,false,38
477,"",5,51,"","",2019-06-12T19:17:38.000-07:00,40.75640548,"",-73.9900262,"",W 41 St & 8 Ave,"",W 41 St & 8 Ave,1,In Service,false,59
3342,"",23,0,"","",2019-06-12T19:17:28.000-07:00,40.6777748,"",-74.0094613,"",Pioneer St & Richards St,"",Pioneer St & Richards St,1,In Service,false,23
3374,"",12,24,"","",2019-06-12T19:16:14.000-07:00,40.799484,"",-73.955613,"",Central Park N & Adam Clayton Powell Blvd,"",Central Park N & Adam Clayton Powell Blvd,1,In Service,false,36
3589,"",3,16,"","",2019-06-12T19:14:01.000-07:00,40.7668,"",-73.9347774,"",Broadway & 12 St,"",Broadway & 12 St,1,In Service,false,19
3712,"",4,36,"","",2019-06-12T19:14:47.000-07:00,40.754691750226016,"",-73.99740189313889,"",W 35 St & Dyer Ave,"",W 35 St & Dyer Ave,1,In Service,false,41
465,"",2,37,"","",2019-06-12T19:16:48.000-07:00,40.75513557,"",-73.98658032,"",Broadway & W 41 St,"",Broadway & W 41 St,1,In Service,false,39
518,"",0,39,"","",2019-06-12T19:17:04.000-07:00,40.74780373,"",-73.9734419,"",E 39 St & 2 Ave,"",E 39 St & 2 Ave,1,In Service,false,39
3576,"",2,24,"","",2019-06-12T19:16:57.000-07:00,40.6767,"",-73.969024,"",Park Pl & Vanderbilt Ave,"",Park Pl & Vanderbilt Ave,1,In Service,false,27
3681,"",1,13,"","",2019-06-12T19:17:34.000-07:00,40.71517767732029,"",-74.03768330812454,"",Grand St,"",Grand St,1,In Service,false,18
265,"",35,0,"","",2019-06-12T19:15:46.000-07:00,40.72229346,"",-73.99147535,"",Stanton St & Chrystie St,"",Stanton St & Chrystie St,1,In Service,false,35
432,"",31,0,"","",2019-06-12T19:16:58.000-07:00,40.72621788,"",-73.98379855,"",E 7 St & Ave. A,"",E 7 St & Ave. A,1,In Service,false,31
3082,"",4,21,"","",2019-06-12T19:14:47.000-07:00,40.71167351,"",-73.95141312,"",Hope St & Union Ave,"",Hope St & Union Ave,1,In Service,false,25
3424,"",20,7,"","",2019-06-12T19:15:08.000-07:00,40.791976,"",-73.945993,"",E 106 St & Lexington Ave,"",E 106 St & Lexington Ave,1,In Service,false,27
508,"",2,22,"","",2019-06-12T19:14:46.000-07:00,40.76341379,"",-73.99667444,"",W 46 St & 11 Ave,"",W 46 St & 11 Ave,1,In Service,false,25
520,"",0,41,"","",2019-06-12T19:14:48.000-07:00,40.75992262,"",-73.97648516,"",W 52 St & 5 Ave,"",W 52 St & 5 Ave,1,In Service,false,41
3077,"",12,19,"","",2019-06-12T19:15:07.000-07:00,40.70877084,"",-73.95095259,"",Stagg St & Union Ave,"",Stagg St & Union Ave,1,In Service,false,33
3292,"",6,36,"","",2019-06-12T19:13:51.000-07:00,40.7857851,"",-73.957481,"",5 Ave & E 93 St,"",5 Ave & E 93 St,1,In Service,false,43
244,"",12,18,"","",2019-06-12T19:17:36.000-07:00,40.69196035,"",-73.96536851,"",Willoughby Ave & Hall St,"",Willoughby Ave & Hall St,1,In Service,false,31
344,"",11,12,"","",2019-06-12T19:16:25.000-07:00,40.6851443,"",-73.95380904,"",Monroe St & Bedford Ave,"",Monroe St & Bedford Ave,1,In Service,false,23
525,"",3,51,"","",2019-06-12T19:16:12.000-07:00,40.75594159,"",-74.0021163,"",W 34 St & 11 Ave,"",W 34 St & 11 Ave,1,In Service,false,56
3276,"",21,5,"","",2019-06-12T19:16:44.000-07:00,40.71458403535893,"",-74.04281705617905,"",Marin Light Rail,"",Marin Light Rail,1,In Service,false,26
3281,"",10,4,"","",2019-06-12T19:14:45.000-07:00,40.74590996631558,"",-74.0572714805603,"",Leonard Gordon Park,"",Leonard Gordon Park,1,In Service,false,14
3373,"",27,0,"","",2019-06-12T19:14:06.000-07:00,40.6750705,"",-73.98775226,"",3 St & 3 Ave,"",3 St & 3 Ave,1,In Service,false,27
3759,"",18,0,"","",2019-06-12T19:15:10.000-07:00,40.70538,"",-73.92535,"",Irving Ave & Jefferson St,"",Irving Ave & Jefferson St,1,In Service,false,19
164,"",0,43,"","",2019-06-12T19:16:38.000-07:00,40.75323098,"",-73.97032517,"",E 47 St & 2 Ave,"",E 47 St & 2 Ave,1,In Service,false,47
503,"",1,30,"","",2019-06-12T19:17:08.000-07:00,40.73827428,"",-73.98751968,"",E 20 St & Park Ave,"",E 20 St & Park Ave,1,In Service,false,31
3172,"",14,12,"","",2019-06-12T19:16:46.000-07:00,40.7785669,"",-73.97754961,"",W 74 St & Columbus Ave,"",W 74 St & Columbus Ave,1,In Service,false,27
3375,"",4,31,"","",2019-06-12T19:17:29.000-07:00,40.7699426,"",-73.96060712,"",3 Ave & E 72 St,"",3 Ave & E 72 St,1,In Service,false,35
3504,"",3,23,"","",2019-06-12T19:16:33.000-07:00,40.8029263,"",-73.9379,"",E 123 St & Lexington Ave,"",E 123 St & Lexington Ave,1,In Service,false,27
3531,"",4,21,"","",2019-06-12T19:17:33.000-07:00,40.8125511,"",-73.9492286,"",Frederick Douglass Blvd & W 129 St,"",Frederick Douglass Blvd & W 129 St,1,In Service,false,27
3578,"",3,18,"","",2019-06-12T19:17:28.000-07:00,40.6741806,"",-73.9564947,"",Park Pl & Franklin Ave,"",Park Pl & Franklin Ave,1,In Service,false,21
3584,"",13,27,"","",2019-06-12T19:14:06.000-07:00,40.6707767,"",-73.9576801,"",Eastern Pkwy & Franklin Ave,"",Eastern Pkwy & Franklin Ave,1,In Service,false,42
3610,"",0,27,"","",2019-06-12T19:10:44.000-07:00,40.770845,"",-73.934171,"",Vernon Blvd & 30 Rd,"",Vernon Blvd & 30 Rd,1,In Service,false,27
360,"",3,35,"","",2019-06-12T19:15:32.000-07:00,40.70717936,"",-74.00887308,"",William St & Pine St,"",William St & Pine St,1,In Service,false,39
495,"",7,30,"","",2019-06-12T19:17:17.000-07:00,40.76269882,"",-73.99301222,"",W 47 St & 10 Ave,"",W 47 St & 10 Ave,1,In Service,false,39
3499,"",3,22,"","",2019-06-12T19:17:07.000-07:00,40.8006721,"",-73.9349,"",2 Ave & E 122 St,"",2 Ave & E 122 St,1,In Service,false,25
3551,"",2,20,"","",2019-06-12T19:17:36.000-07:00,40.795508,"",-73.941606,"",3 Ave & E 112 St,"",3 Ave & E 112 St,1,In Service,false,23
3592,"",7,12,"","",2019-06-12T19:14:20.000-07:00,40.7633589,"",-73.9286471,"",Crescent St & Broadway,"",Crescent St & Broadway,1,In Service,false,19
245,"",5,16,"","",2019-06-12T19:15:52.000-07:00,40.69327018,"",-73.97703874,"",Myrtle Ave & St Edwards St,"",Myrtle Ave & St Edwards St,1,In Service,false,23
504,"",34,19,"","",2019-06-12T19:16:12.000-07:00,40.73221853,"",-73.98165557,"",1 Ave & E 16 St,"",1 Ave & E 16 St,1,In Service,false,53
536,"",0,28,"","",2019-06-12T19:15:45.000-07:00,40.74144387,"",-73.97536082,"",1 Ave & E 30 St,"",1 Ave & E 30 St,1,In Service,false,29
3140,"",42,9,"","",2019-06-12T19:15:52.000-07:00,40.77140426,"",-73.9535166,"",1 Ave & E 78 St,"",1 Ave & E 78 St,1,In Service,false,55
3336,"",2,39,"","",2019-06-12T19:17:14.000-07:00,40.787801,"",-73.953559,"",E 97 St & Madison Ave,"",E 97 St & Madison Ave,1,In Service,false,41
3363,"",1,27,"","",2019-06-12T19:17:26.000-07:00,40.7904828,"",-73.95033068,"",E 102 St & Park Ave,"",E 102 St & Park Ave,1,In Service,false,33
3773,"",12,8,"","",2019-06-12T19:15:00.000-07:00,40.70539,"",-73.92976,"",Knickerbocker Ave & Thames St,"",Knickerbocker Ave & Thames St,1,In Service,false,20
359,"",0,63,"","",2019-06-12T19:15:20.000-07:00,40.75510267,"",-73.97498696,"",E 47 St & Park Ave,"",E 47 St & Park Ave,1,In Service,false,64
422,"",11,65,"","",2019-06-12T19:16:24.000-07:00,40.770513,"",-73.988038,"",W 59 St & 10 Ave,"",W 59 St & 10 Ave,1,In Service,false,79
3278,"",12,1,"","",2019-06-12T19:16:13.000-07:00,40.72568548362901,"",-74.04879033565521,"",Monmouth and 6th,"",Monmouth and 6th,1,In Service,false,14
3358,"",11,13,"","",2019-06-12T19:17:35.000-07:00,40.6711978,"",-73.97484126,"",Garfield Pl & 8 Ave,"",Garfield Pl & 8 Ave,1,In Service,false,25
3573,"",2,22,"","",2019-06-12T19:14:43.000-07:00,40.7580583,"",-73.9242751,"",35 St & 34 Ave,"",35 St & 34 Ave,1,In Service,false,25
426,"",15,9,"","",2019-06-12T19:17:36.000-07:00,40.71754834,"",-74.01322069,"",W St & Chambers St,"",W St & Chambers St,1,In Service,false,29
3214,"",3,19,"","",2019-06-12T19:14:24.000-07:00,40.7127742,"",-74.0364857,"",Essex Light Rail,"",Essex Light Rail,1,In Service,false,22
3337,"",23,0,"","",2019-06-12T19:15:45.000-07:00,40.67363551341504,"",-74.01195555925369,"",Dwight St & Van Dyke St,"",Dwight St & Van Dyke St,1,In Service,false,23
3346,"",20,8,"","",2019-06-12T19:16:53.000-07:00,40.675146838709786,"",-73.97523209452629,"",Berkeley Pl & 7 Ave,"",Berkeley Pl & 7 Ave,1,In Service,false,29
3596,"",19,0,"","",2019-06-12T19:14:45.000-07:00,40.6642406,"",-73.9574686,"",Sullivan Pl & Bedford Ave,"",Sullivan Pl & Bedford Ave,1,In Service,false,19
3763,"",22,5,"","",2019-06-12T19:16:20.000-07:00,40.707165,"",-73.923711,"",Wyckoff Av & Jefferson St,"",Wyckoff Av & Jefferson St,1,In Service,false,27
3516,"",2,29,"","",2019-06-12T19:15:41.000-07:00,40.7699176,"",-73.9184057,"",31 St & Astoria Blvd,"",31 St & Astoria Blvd,1,In Service,false,31
3044,"",0,27,"","",2019-06-12T19:17:30.000-07:00,40.6800105,"",-73.938475,"",Albany Ave & Fulton St,"",Albany Ave & Fulton St,1,In Service,false,27
3068,"",23,15,"","",2019-06-12T19:15:29.000-07:00,40.7031724,"",-73.940636,"",Humboldt St & Varet St,"",Humboldt St & Varet St,1,In Service,false,42
3159,"",2,28,"","",2019-06-12T19:14:18.000-07:00,40.77492513,"",-73.98266566,"",W 67 St & Broadway,"",W 67 St & Broadway,1,In Service,false,31
3500,"",4,21,"","",2019-06-12T19:14:28.000-07:00,40.7989445,"",-73.944846,"",E 115 St & Madison Ave,"",E 115 St & Madison Ave,1,In Service,false,31
3509,"",5,25,"","",2019-06-12T19:16:36.000-07:00,40.8011939,"",-73.9500739,"",Lenox Ave & W 115 St,"",Lenox Ave & W 115 St,1,In Service,false,31
391,"",0,30,"","",2019-06-12T19:15:15.000-07:00,40.69760127,"",-73.99344559,"",Clark St & Henry St,"",Clark St & Henry St,1,In Service,false,31
3066,"",11,8,"","",2019-06-12T19:16:54.000-07:00,40.69957608,"",-73.94708417,"",Tompkins Ave & Hopkins St,"",Tompkins Ave & Hopkins St,1,In Service,false,19
308,"",7,19,"","",2019-06-12T19:14:34.000-07:00,40.71307916,"",-73.99851193,"",St James Pl & Oliver St,"",St James Pl & Oliver St,1,In Service,false,27
3293,"",1,23,"","",2019-06-12T19:14:59.000-07:00,40.7921,"",-73.9739,"",W 92 St & Broadway,"",W 92 St & Broadway,1,In Service,false,24
524,"",0,55,"","",2019-06-12T19:17:35.000-07:00,40.75527307,"",-73.98316936,"",W 43 St & 6 Ave,"",W 43 St & 6 Ave,1,In Service,false,57
3164,"",11,52,"","",2019-06-12T19:16:18.000-07:00,40.7770575,"",-73.97898475,"",Columbus Ave & W 72 St,"",Columbus Ave & W 72 St,1,In Service,false,67
3394,"",18,3,"","",2019-06-12T19:16:11.000-07:00,40.6769993,"",-74.00647134,"",Columbia St & W 9 St,"",Columbia St & W 9 St,1,In Service,false,21
3714,"",10,51,"","",2019-06-12T19:15:22.000-07:00,40.70684203101325,"",-73.9544353965357,"",Division Av & Hooper St,"",Division Av & Hooper St,1,In Service,false,61
3321,"",14,11,"","",2019-06-12T19:17:13.000-07:00,40.6831164,"",-73.99785267,"",Clinton St & Union St,"",Clinton St & Union St,1,In Service,false,25
3395,"",16,3,"","",2019-06-12T19:14:13.000-07:00,40.6763744,"",-74.00324957,"",Henry St & W 9 St,"",Henry St & W 9 St,1,In Service,false,19
3492,"",5,22,"","",2019-06-12T19:15:09.000-07:00,40.8005385,"",-73.9419949,"",E 118 St & Park Ave,"",E 118 St & Park Ave,1,In Service,false,27
3654,"",0,35,"","",2019-06-12T19:15:32.000-07:00,40.75186951421875,"",-73.93349289894103,"",31 St & Northern Blvd,"",31 St & Northern Blvd,1,In Service,false,35
3716,"",0,23,"","",2019-06-12T19:16:40.000-07:00,40.753599202005596,"",-73.93795609474182,"",40 Ave & Crescent St,"",40 Ave & Crescent St,1,In Service,false,23
305,"",0,32,"","",2019-06-12T19:14:42.000-07:00,40.76095756,"",-73.96724467,"",E 58 St & 3 Ave,"",E 58 St & 3 Ave,1,In Service,false,33
3231,"",0,39,"","",2019-06-12T19:17:03.000-07:00,40.76780080148132,"",-73.96592080593109,"",E 67 St & Park Ave,"",E 67 St & Park Ave,1,In Service,false,39
302,"",23,0,"","",2019-06-12T19:14:21.000-07:00,40.72082834,"",-73.97793172,"",Ave. D & E 3 St,"",Ave. D & E 3 St,1,In Service,false,23
3497,"",11,12,"","",2019-06-12T19:13:53.000-07:00,40.7949879,"",-73.9333349,"",Pleasant Ave & E 116 St,"",Pleasant Ave & E 116 St,1,In Service,false,23
3604,"",11,6,"","",2019-06-12T19:15:39.000-07:00,40.6630619,"",-73.9538746,"",Rogers Ave & Sterling St,"",Rogers Ave & Sterling St,1,In Service,false,17
3078,"",5,22,"","",2019-06-12T19:16:50.000-07:00,40.70924826276157,"",-73.96063148975372,"",Broadway & Roebling St,"",Broadway & Roebling St,1,In Service,false,27
3202,"",5,10,"","",2019-06-12T19:16:20.000-07:00,40.7272235,"",-74.0337589,"",Newport PATH,"",Newport PATH,1,In Service,false,18
3350,"",19,19,"","",2019-06-12T19:17:37.000-07:00,40.7973721,"",-73.97041192,"",W 100 St & Broadway,"",W 100 St & Broadway,1,In Service,false,39
3656,"",44,1,"","",2019-06-12T19:17:21.000-07:00,40.72307749068673,"",-73.98583620786667,"",E 2 St & Ave. A,"",E 2 St & Ave. A,1,In Service,false,46
314,"",8,31,"","",2019-06-12T19:17:08.000-07:00,40.69383,"",-73.990539,"",Cadman Plaza W & Montague St,"",Cadman Plaza W & Montague St,1,In Service,false,39
408,"",23,0,"","",2019-06-12T19:14:56.000-07:00,40.71076228,"",-73.99400398,"",Market St & Cherry St,"",Market St & Cherry St,1,In Service,false,23
3101,"",16,10,"","",2019-06-12T19:16:54.000-07:00,40.72079821,"",-73.95484712,"",N 12 St & Bedford Ave,"",N 12 St & Bedford Ave,1,In Service,false,27
3168,"",29,0,"","",2019-06-12T19:17:08.000-07:00,40.78472675,"",-73.96961715,"",Central Park W & W 85 St,"",Central Park W & W 85 St,1,In Service,false,31
3677,"",2,16,"","",2019-06-12T19:16:03.000-07:00,40.72755146730012,"",-74.07106071710587,"",Glenwood Ave,"",Glenwood Ave,1,In Service,false,18
3708,"",6,21,"","",2019-06-12T19:15:36.000-07:00,40.735445,"",-73.99431,"",W 13 St & 5 Ave,"",W 13 St & 5 Ave,1,In Service,false,29
3472,"",0,37,"","",2019-06-12T19:16:40.000-07:00,40.742753828659026,"",-74.00747358798981,"",W 15 St & 10 Ave,"",W 15 St & 10 Ave,1,In Service,false,39
3697,"",34,7,"","",2019-06-12T19:15:29.000-07:00,40.77515953434235,"",-73.98918695747852,"",W 64 St & Thelonious Monk Circle,"",W 64 St & Thelonious Monk Circle,1,In Service,false,43
3075,"",15,18,"","",2019-06-12T19:15:28.000-07:00,40.70708701,"",-73.95796783,"",Division Ave & Marcy Ave,"",Division Ave & Marcy Ave,1,In Service,false,33
3085,"",8,17,"","",2019-06-12T19:17:17.000-07:00,40.71469,"",-73.95739,"",Roebling St & N 4 St,"",Roebling St & N 4 St,1,In Service,false,25
3191,"",9,9,"","",2019-06-12T19:17:37.000-07:00,40.7182113,"",-74.0836394,"",Union St,"",Union St,1,In Service,false,18
3540,"",8,27,"","",2019-06-12T19:17:05.000-07:00,40.81,"",-73.9551508,"",Morningside Ave & W 123 St,"",Morningside Ave & W 123 St,1,In Service,false,35
3585,"",8,15,"","",2019-06-12T19:16:55.000-07:00,40.6691783,"",-73.9554162,"",Union St & Bedford Ave,"",Union St & Bedford Ave,1,In Service,false,24
3675,"",2,29,"","",2019-06-12T19:14:19.000-07:00,40.784596798848916,"",-73.94968539476395,"",3 Ave & E 95 St,"",3 Ave & E 95 St,1,In Service,false,31
298,"",27,8,"","",2019-06-12T19:17:34.000-07:00,40.68683208,"",-73.9796772,"",3 Ave & Schermerhorn St,"",3 Ave & Schermerhorn St,1,In Service,false,35
410,"",41,3,"","",2019-06-12T19:17:39.000-07:00,40.72066442,"",-73.98517977,"",Suffolk St & Stanton St,"",Suffolk St & Stanton St,1,In Service,false,45
533,"",0,45,"","",2019-06-12T19:15:32.000-07:00,40.75299641,"",-73.98721619,"",Broadway & W 38 St,"",Broadway & W 38 St,1,In Service,false,46
3171,"",23,16,"","",2019-06-12T19:17:03.000-07:00,40.78524672,"",-73.97667321,"",Amsterdam Ave & W 82 St,"",Amsterdam Ave & W 82 St,1,In Service,false,39
3351,"",19,6,"","",2019-06-12T19:16:56.000-07:00,40.7869946,"",-73.94164802,"",E 102 St & 1 Ave,"",E 102 St & 1 Ave,1,In Service,false,25
3402,"",22,1,"","",2019-06-12T19:15:53.000-07:00,40.6902375,"",-73.99203074,"",Court St & State St,"",Court St & State St,1,In Service,false,23
3511,"",2,19,"","",2019-06-12T19:17:15.000-07:00,40.802535,"",-73.9532423,"",Adam Clayton Powell Blvd & W 115 St,"",Adam Clayton Powell Blvd & W 115 St,1,In Service,false,22
289,"",11,6,"","",2019-06-12T19:13:59.000-07:00,40.6845683,"",-73.95881081,"",Monroe St & Classon Ave,"",Monroe St & Classon Ave,1,In Service,false,19
2005,"",1,11,"","",2019-06-12T19:15:44.000-07:00,40.70531194,"",-73.97100056,"",Railroad Ave & Kay Ave,"",Railroad Ave & Kay Ave,1,In Service,false,12
3260,"",26,19,"","",2019-06-12T19:17:16.000-07:00,40.72706363348306,"",-73.99662137031554,"",Mercer St & Bleecker St,"",Mercer St & Bleecker St,1,In Service,false,45
3613,"",13,14,"","",2019-06-12T19:15:53.000-07:00,40.745038,"",-73.957539,"",Center Blvd & 48 Ave,"",Center Blvd & 48 Ave,1,In Service,false,27
2023,"",0,36,"","",2019-06-12T19:17:26.000-07:00,40.75968085,"",-73.97031366,"",E 55 St & Lexington Ave,"",E 55 St & Lexington Ave,1,In Service,false,36
3221,"",1,25,"","",2019-06-12T19:16:42.000-07:00,40.743,"",-73.93561,"",47 Ave & 31 St,"",47 Ave & 31 St,1,In Service,false,27
3512,"",14,5,"","",2019-06-12T19:13:56.000-07:00,40.7747175,"",-73.9337894,"",27 Ave & 4 St,"",27 Ave & 4 St,1,In Service,false,19
3367,"",0,38,"","",2019-06-12T19:17:43.000-07:00,40.7922553,"",-73.95249933,"",5 Ave & E 103 St,"",5 Ave & E 103 St,1,In Service,false,39
3388,"",18,6,"","",2019-06-12T19:17:23.000-07:00,40.6828003,"",-73.99990419,"",President St & Henry St,"",President St & Henry St,1,In Service,false,25
3686,"",9,28,"","",2019-06-12T19:15:04.000-07:00,40.739448201304036,"",-74.00507032871246,"",Gansevoort St & Hudson St,"",Gansevoort St & Hudson St,1,In Service,false,39
3056,"",2,21,"","",2019-06-12T19:14:55.000-07:00,40.69072549,"",-73.95133465,"",Kosciuszko St & Nostrand Ave,"",Kosciuszko St & Nostrand Ave,1,In Service,false,23
3422,"",21,0,"","",2019-06-12T19:17:06.000-07:00,40.6859296,"",-74.00242364,"",Columbia St & Degraw St,"",Columbia St & Degraw St,1,In Service,false,21
3530,"",2,17,"","",2019-06-12T19:14:15.000-07:00,40.7787185,"",-73.9145645,"",Crescent St & Ditmars Blvd,"",Crescent St & Ditmars Blvd,1,In Service,false,19
3676,"",24,0,"","",2019-06-12T19:17:28.000-07:00,40.6758329439129,"",-74.01472628116608,"",Van Brunt St & Van Dyke St,"",Van Brunt St & Van Dyke St,1,In Service,false,24
3527,"",0,27,"","",2019-06-12T19:15:00.000-07:00,40.80698,"",-73.941747,"",5 Ave & E 126 St,"",5 Ave & E 126 St,1,In Service,false,27
3553,"",11,26,"","",2019-06-12T19:17:23.000-07:00,40.801694,"",-73.957145,"",Frederick Douglass Blvd & W 112 St,"",Frederick Douglass Blvd & W 112 St,1,In Service,false,37
3718,"",44,2,"","",2019-06-12T19:16:40.000-07:00,40.72746420692392,"",-73.97950418293476,"",E 11 St & Ave. B,"",E 11 St & Ave. B,1,In Service,false,46
216,"",19,4,"","",2019-06-12T19:15:50.000-07:00,40.70037867,"",-73.99548059,"",Columbia Heights & Cranberry St,"",Columbia Heights & Cranberry St,1,In Service,false,23
3126,"",6,26,"","",2019-06-12T19:16:41.000-07:00,40.74718234,"",-73.9432635,"",44 Dr & Jackson Ave,"",44 Dr & Jackson Ave,1,In Service,false,34
3273,"",1,17,"","",2019-06-12T19:15:13.000-07:00,40.721650724879986,"",-74.04288411140442,"",Manila & 1st,"",Manila & 1st,1,In Service,false,18
3313,"",6,23,"","",2019-06-12T19:17:15.000-07:00,40.6663181,"",-73.9854617,"",6 Ave & 12 St,"",6 Ave & 12 St,1,In Service,false,29
3525,"",0,21,"","",2019-06-12T19:14:07.000-07:00,40.776165,"",-73.9153175,"",23 Ave & 27 St,"",23 Ave & 27 St,1,In Service,false,21
3529,"",15,10,"","",2019-06-12T19:17:25.000-07:00,40.8107922,"",-73.9430681,"",Lenox Ave & W 130 St,"",Lenox Ave & W 130 St,1,In Service,false,25
3768,"",5,18,"","",2019-06-12T19:14:43.000-07:00,40.71019,"",-73.93734,"",Waterbury St & Stagg St,"",Waterbury St & Stagg St,1,In Service,false,23
3053,"",2,20,"","",2019-06-12T19:15:08.000-07:00,40.6900815,"",-73.947915,"",Marcy Ave & Lafayette Ave,"",Marcy Ave & Lafayette Ave,1,In Service,false,23
3565,"",0,19,"","",2019-06-12T19:17:43.000-07:00,40.7614376,"",-73.9411265,"",36 Ave & 10 St,"",36 Ave & 10 St,1,In Service,false,19
173,"",2,48,"","",2019-06-12T19:16:21.000-07:00,40.76068327096592,"",-73.9845272898674,"",Broadway & W 49 St,"",Broadway & W 49 St,1,In Service,false,51
505,"",0,0,"","",2019-05-12T17:05:09.000-07:00,40.74901271,"",-73.98848395,"",6 Ave & W 33 St,"",6 Ave & W 33 St,3,Not In Service,false,0
3088,"",12,6,"","",2019-06-12T19:15:45.000-07:00,40.7160751,"",-73.952029,"",Union Ave & Jackson St,"",Union Ave & Jackson St,1,In Service,false,19
3166,"",20,20,"","",2019-06-12T19:16:32.000-07:00,40.78057799010334,"",-73.98562431335449,"",Riverside Dr & W 72 St,"",Riverside Dr & W 72 St,1,In Service,false,41
3297,"",8,13,"","",2019-06-12T19:16:04.000-07:00,40.6686627,"",-73.97988067,"",6 St & 7 Ave,"",6 St & 7 Ave,1,In Service,false,21
238,"",23,3,"","",2019-06-12T19:17:38.000-07:00,40.7361967,"",-74.00859207,"",Bank St & Washington St,"",Bank St & Washington St,1,In Service,false,31
3213,"",7,14,"","",2019-06-12T18:43:17.000-07:00,40.71848892,"",-74.047726625,"",Van Vorst Park,"",Van Vorst Park,1,In Service,false,22
372,"",14,12,"","",2019-06-12T19:14:24.000-07:00,40.694546087246025,"",-73.95801365375519,"",Franklin Ave & Myrtle Ave,"",Franklin Ave & Myrtle Ave,1,In Service,false,27
3116,"",24,10,"","",2019-06-12T19:15:25.000-07:00,40.73266,"",-73.95826,"",Huron St & Franklin St,"",Huron St & Franklin St,1,In Service,false,35
3707,"",1,54,"","",2019-06-12T19:14:40.000-07:00,40.741459,"",-73.983293,"",Lexington Ave & E 26 St,"",Lexington Ave & E 26 St,1,In Service,false,55
335,"",4,23,"","",2019-06-12T19:16:31.000-07:00,40.72903917,"",-73.99404649,"",Washington Pl & Broadway,"",Washington Pl & Broadway,1,In Service,false,27
3064,"",4,19,"","",2019-06-12T19:17:33.000-07:00,40.69681963,"",-73.93756926,"",Myrtle Ave & Lewis Ave,"",Myrtle Ave & Lewis Ave,1,In Service,false,23
3129,"",2,28,"","",2019-06-12T19:17:28.000-07:00,40.75110165,"",-73.94073717,"",Queens Plaza N & Crescent St,"",Queens Plaza N & Crescent St,1,In Service,false,31
3206,"",1,25,"","",2019-06-12T19:14:40.000-07:00,40.7311689,"",-74.0575736,"",Hilltop,"",Hilltop,1,In Service,false,26
3254,"",15,11,"","",2019-06-12T19:15:05.000-07:00,40.69231660719192,"",-74.01486575603485,"",Soissons Landing,"",Soissons Landing,1,In Service,false,29
3272,"",6,8,"","",2019-06-12T19:17:19.000-07:00,40.72333158646436,"",-74.04595255851744,"",Jersey & 3rd,"",Jersey & 3rd,1,In Service,false,14
3340,"",20,1,"","",2019-06-12T19:16:15.000-07:00,40.6753274,"",-74.0100698,"",Wolcott St & Dwight St,"",Wolcott St & Dwight St,1,In Service,false,21
3478,"",23,18,"","",2019-06-12T19:14:56.000-07:00,40.65708866668485,"",-74.00870203971863,"",2 Ave & 36 St - Citi Bike HQ at Industry City,"",2 Ave & 36 St - Citi Bike HQ at Industry City,1,In Service,false,43
3621,"",7,7,"","",2019-06-12T19:15:33.000-07:00,40.7739825,"",-73.9309134,"",27 Ave & 9 St,"",27 Ave & 9 St,1,In Service,false,19
310,"",30,6,"","",2019-06-12T19:17:15.000-07:00,40.68926942,"",-73.98912867,"",State St & Smith St,"",State St & Smith St,1,In Service,false,36
313,"",18,4,"","",2019-06-12T19:15:55.000-07:00,40.69610226,"",-73.96751037,"",Washington Ave & Park Ave,"",Washington Ave & Park Ave,1,In Service,false,23
393,"",35,2,"","",2019-06-12T19:16:59.000-07:00,40.72299208,"",-73.97995466,"",E 5 St & Ave. C,"",E 5 St & Ave. C,1,In Service,false,37
493,"",0,32,"","",2019-06-12T19:14:09.000-07:00,40.7568001,"",-73.98291153,"",W 45 St & 6 Ave,"",W 45 St & 6 Ave,1,In Service,false,34
3356,"",2,19,"","",2019-06-12T19:16:31.000-07:00,40.7746671,"",-73.98470567,"",Amsterdam Ave & W 66 St,"",Amsterdam Ave & W 66 St,1,In Service,false,21
3614,"",0,21,"","",2019-06-12T19:17:11.000-07:00,40.768692,"",-73.9249574,"",Crescent St & 30 Ave,"",Crescent St & 30 Ave,1,In Service,false,23
223,"",11,19,"","",2019-06-12T19:17:13.000-07:00,40.73781509,"",-73.99994661,"",W 13 St & 7 Ave,"",W 13 St & 7 Ave,1,In Service,false,33
315,"",2,27,"","",2019-06-12T19:17:04.000-07:00,40.70355377,"",-74.00670227,"",S St & Gouverneur Ln,"",S St & Gouverneur Ln,1,In Service,false,29
3536,"",3,40,"","",2019-06-12T19:17:22.000-07:00,40.8082,"",-73.9641,"",W 116 St & Broadway,"",W 116 St & Broadway,1,In Service,false,43
3694,"",4,14,"","",2019-06-12T19:16:45.000-07:00,40.71113,"",-74.0789,"",Jackson Square,"",Jackson Square,1,In Service,false,18
195,"",0,42,"","",2019-06-12T19:14:07.000-07:00,40.70905623,"",-74.01043382,"",Liberty St & Broadway,"",Liberty St & Broadway,1,In Service,false,45
436,"",4,23,"","",2019-06-12T19:15:22.000-07:00,40.68216564,"",-73.95399026,"",Hancock St & Bedford Ave,"",Hancock St & Bedford Ave,1,In Service,false,27
438,"",45,2,"","",2019-06-12T19:17:29.000-07:00,40.72779126,"",-73.98564945,"",St Marks Pl & 1 Ave,"",St Marks Pl & 1 Ave,1,In Service,false,47
3047,"",15,5,"","",2019-06-12T19:15:13.000-07:00,40.6823687,"",-73.944118,"",Halsey St & Tompkins Ave,"",Halsey St & Tompkins Ave,1,In Service,false,21
3074,"",4,38,"","",2019-06-12T19:15:25.000-07:00,40.70767788,"",-73.94016171,"",Montrose Ave & Bushwick Ave,"",Montrose Ave & Bushwick Ave,1,In Service,false,42
3241,"",1,18,"","",2019-06-12T19:16:05.000-07:00,40.686203,"",-73.944694,"",Monroe St & Tompkins Ave,"",Monroe St & Tompkins Ave,1,In Service,false,19
3344,"",18,1,"","",2019-06-12T19:16:55.000-07:00,40.679043,"",-74.011169,"",Pioneer St & Van Brunt St,"",Pioneer St & Van Brunt St,1,In Service,false,19
3649,"",4,25,"","",2019-06-12T19:15:36.000-07:00,40.814394437915816,"",-73.95324736833572,"",W 129 St & Convent Ave,"",W 129 St & Convent Ave,1,In Service,false,30
3761,"",23,3,"","",2019-06-12T19:15:33.000-07:00,40.697842,"",-73.926241,"",Cedar St & Myrtle Ave,"",Cedar St & Myrtle Ave,1,In Service,false,27
82,"",3,23,"","",2019-06-12T19:16:40.000-07:00,40.71117416,"",-74.00016545,"",St James Pl & Pearl St,"",St James Pl & Pearl St,1,In Service,false,27
350,"",23,5,"","",2019-06-12T19:15:44.000-07:00,40.71559509,"",-73.9870295,"",Clinton St & Grand St,"",Clinton St & Grand St,1,In Service,false,28
472,"",2,51,"","",2019-06-12T19:17:04.000-07:00,40.7457121,"",-73.98194829,"",E 32 St & Park Ave,"",E 32 St & Park Ave,1,In Service,false,55
523,"",11,35,"","",2019-06-12T19:17:44.000-07:00,40.75466591,"",-73.99138152,"",W 38 St & 8 Ave,"",W 38 St & 8 Ave,1,In Service,false,51
3775,"",22,5,"","",2019-06-12T19:15:52.000-07:00,40.702013,"",-73.923769,"",Suydam St & Knickerbocker Ave,"",Suydam St & Knickerbocker Ave,1,In Service,false,27
351,"",1,37,"","",2019-06-12T19:15:28.000-07:00,40.70530954,"",-74.00612572,"",Front St & Maiden Ln,"",Front St & Maiden Ln,1,In Service,false,39
470,"",41,29,"","",2019-06-12T19:16:41.000-07:00,40.74345335,"",-74.00004031,"",W 20 St & 8 Ave,"",W 20 St & 8 Ave,1,In Service,false,72
3177,"",15,47,"","",2019-06-12T19:14:46.000-07:00,40.7867947,"",-73.977112,"",W 84 St & Broadway,"",W 84 St & Broadway,1,In Service,false,63
3223,"",0,0,"","",2019-06-06T09:37:37.000-07:00,40.758996559605116,"",-73.96865397691727,"",E 55 St & 3 Ave,"",E 55 St & 3 Ave,3,Not In Service,false,0
3307,"",17,13,"","",2019-06-12T19:14:22.000-07:00,40.7941654,"",-73.974124,"",W End Ave & W 94 St,"",W End Ave & W 94 St,1,In Service,false,31
3310,"",23,0,"","",2019-06-12T19:15:22.000-07:00,40.663779,"",-73.98396846,"",14 St & 7 Ave,"",14 St & 7 Ave,1,In Service,false,24
3397,"",25,0,"","",2019-06-12T19:17:41.000-07:00,40.6763947,"",-73.99869893,"",Court St & Nelson St,"",Court St & Nelson St,1,In Service,false,25
3620,"",5,18,"","",2019-06-12T19:14:00.000-07:00,40.7519071,"",-73.9479119,"",11 St & 43 Ave,"",11 St & 43 Ave,1,In Service,false,23
3790,"",3,33,"","",2019-06-12T19:13:56.000-07:00,40.7003,"",-73.991581,"",Henry St & Middagh St,"",Henry St & Middagh St,1,In Service,false,37
151,"",2,30,"","",2019-06-12T19:16:13.000-07:00,40.722103786686034,"",-73.99724900722504,"",Cleveland Pl & Spring St,"",Cleveland Pl & Spring St,1,In Service,false,33
401,"",20,20,"","",2019-06-12T19:17:41.000-07:00,40.72019576,"",-73.98997825,"",Allen St & Rivington St,"",Allen St & Rivington St,1,In Service,false,42
3568,"",6,14,"","",2019-06-12T19:14:04.000-07:00,40.7569332,"",-73.9262231,"",34 St & 35 Ave,"",34 St & 35 Ave,1,In Service,false,21
3638,"",4,13,"","",2019-06-12T19:14:48.000-07:00,40.7242941,"",-74.0354826,"",Washington St,"",Washington St,1,In Service,false,18
3071,"",11,8,"","",2019-06-12T19:16:13.000-07:00,40.70538077,"",-73.94976519,"",Boerum St & Broadway,"",Boerum St & Broadway,1,In Service,false,19
3107,"",37,1,"","",2019-06-12T19:17:01.000-07:00,40.72311651,"",-73.95212324,"",Bedford Ave & Nassau Ave,"",Bedford Ave & Nassau Ave,1,In Service,false,39
3335,"",28,0,"","",2019-06-12T19:16:58.000-07:00,40.6772744,"",-73.98282002,"",Union St & 4 Ave,"",Union St & 4 Ave,1,In Service,false,28
3490,"",5,26,"","",2019-06-12T19:16:09.000-07:00,40.796879,"",-73.937261,"",E 116 St & 2 Ave,"",E 116 St & 2 Ave,1,In Service,false,31
312,"",2,29,"","",2019-06-12T19:14:58.000-07:00,40.722055,"",-73.989111,"",Allen St & Stanton St,"",Allen St & Stanton St,1,In Service,false,31
445,"",65,12,"","",2019-06-12T19:17:34.000-07:00,40.72740794,"",-73.98142006,"",E 10 St & Ave. A,"",E 10 St & Ave. A,1,In Service,false,79
2008,"",2,22,"","",2019-06-12T19:16:30.000-07:00,40.70569254,"",-74.01677685,"",Little W St & 1 Pl,"",Little W St & 1 Pl,1,In Service,false,24
3192,"",15,6,"","",2019-06-12T19:17:24.000-07:00,40.7112423,"",-74.0557013,"",Liberty Light Rail,"",Liberty Light Rail,1,In Service,false,22
297,"",5,21,"","",2019-06-12T19:17:43.000-07:00,40.734232,"",-73.986923,"",E 15 St & 3 Ave,"",E 15 St & 3 Ave,1,In Service,false,27
3055,"",1,22,"","",2019-06-12T19:16:50.000-07:00,40.6883337,"",-73.950916,"",Greene Ave & Nostrand Ave,"",Greene Ave & Nostrand Ave,1,In Service,false,23
3389,"",28,0,"","",2019-06-12T19:16:17.000-07:00,40.6830456,"",-74.00348559,"",Carroll St & Columbia St,"",Carroll St & Columbia St,1,In Service,false,28
291,"",12,7,"","",2019-06-12T19:15:44.000-07:00,40.713126,"",-73.984844,"",Madison St & Montgomery St,"",Madison St & Montgomery St,1,In Service,false,20
3628,"",3,28,"","",2019-06-12T19:15:48.000-07:00,40.8025566,"",-73.9490782,"",Lenox Ave & W 117 St,"",Lenox Ave & W 117 St,1,In Service,false,31
3505,"",3,30,"","",2019-06-12T19:14:12.000-07:00,40.805726,"",-73.936322,"",Lexington Ave & E 127 St,"",Lexington Ave & E 127 St,1,In Service,false,33
3583,"",16,14,"","",2019-06-12T19:17:30.000-07:00,40.6716493,"",-73.9631145,"",Eastern Pkwy & Washington Ave,"",Eastern Pkwy & Washington Ave,1,In Service,false,31
3606,"",10,10,"","",2019-06-12T19:16:32.000-07:00,40.74252,"",-73.948852,"",49 Ave & 21 St,"",49 Ave & 21 St,1,In Service,false,21
3755,"",12,7,"","",2019-06-12T19:15:42.000-07:00,40.69064807082943,"",-73.95746178925037,"",DeKalb Ave & Franklin Ave,"",DeKalb Ave & Franklin Ave,1,In Service,false,19
217,"",36,1,"","",2019-06-12T19:17:29.000-07:00,40.70277159,"",-73.99383605,"",Old Fulton St,"",Old Fulton St,3,Not In Service,false,39
284,"",33,8,"","",2019-06-12T19:17:12.000-07:00,40.7390169121,"",-74.0026376103,"",Greenwich Ave & 8 Ave,"",Greenwich Ave & 8 Ave,1,In Service,false,43
358,"",45,1,"","",2019-06-12T19:15:20.000-07:00,40.73291553,"",-74.00711384,"",Christopher St & Greenwich St,"",Christopher St & Greenwich St,1,In Service,false,50
494,"",7,57,"","",2019-06-12T19:17:11.000-07:00,40.74734825,"",-73.99723551,"",W 26 St & 8 Ave,"",W 26 St & 8 Ave,1,In Service,false,66
3434,"",12,23,"","",2019-06-12T19:13:51.000-07:00,40.79025417330419,"",-73.97718340158461,"",W 88 St & W End Ave,"",W 88 St & W End Ave,1,In Service,false,35
3467,"",16,26,"","",2019-06-12T19:17:13.000-07:00,40.72494672359416,"",-74.00165855884552,"",W Broadway & Spring St.,"",W Broadway & Spring St.,1,In Service,false,42
479,"",9,20,"","",2019-06-12T19:15:19.000-07:00,40.76019252,"",-73.9912551,"",9 Ave & W 45 St,"",9 Ave & W 45 St,1,In Service,false,31
3179,"",0,23,"","",2019-06-12T19:15:47.000-07:00,40.698617,"",-73.941342,"",Park Ave & Marcus Garvey Blvd,"",Park Ave & Marcus Garvey Blvd,1,In Service,false,23
3461,"",2,30,"","",2019-06-12T19:15:41.000-07:00,40.714851505262516,"",-74.01122331619263,"",Murray St & Greenwich St,"",Murray St & Greenwich St,1,In Service,false,33
3533,"",7,27,"","",2019-06-12T19:16:13.000-07:00,40.8114323,"",-73.9518776,"",St. Nicholas Ave & W 126 St,"",St. Nicholas Ave & W 126 St,1,In Service,false,34
3772,"",13,6,"","",2019-06-12T19:15:55.000-07:00,40.713811,"",-73.93515,"",Devoe St & Morgan Ave,"",Devoe St & Morgan Ave,1,In Service,false,19
3065,"",5,25,"","",2019-06-12T19:17:01.000-07:00,40.70029511,"",-73.95032283,"",Union Ave & Wallabout St,"",Union Ave & Wallabout St,1,In Service,false,31
3298,"",23,0,"","",2019-06-12T19:17:43.000-07:00,40.686371,"",-73.99383324,"",Warren St & Court St,"",Warren St & Court St,1,In Service,false,23
3304,"",19,8,"","",2019-06-12T19:17:34.000-07:00,40.668127,"",-73.98377641,"",6 Ave & 9 St,"",6 Ave & 9 St,1,In Service,false,27
3354,"",27,0,"","",2019-06-12T19:14:30.000-07:00,40.668132,"",-73.97363831,"",3 St & Prospect Park W,"",3 St & Prospect Park W,1,In Service,false,31
3579,"",7,18,"","",2019-06-12T19:16:53.000-07:00,40.672695,"",-73.954131,"",Sterling Pl & Bedford Ave,"",Sterling Pl & Bedford Ave,1,In Service,false,25
3593,"",1,33,"","",2019-06-12T19:16:55.000-07:00,40.761584,"",-73.925921,"",31 St & Broadway,"",31 St & Broadway,1,In Service,false,35
3286,"",11,24,"","",2019-06-12T19:17:06.000-07:00,40.7806284,"",-73.9521667,"",E 89 St & 3 Ave,"",E 89 St & 3 Ave,1,In Service,false,39
3404,"",27,0,"","",2019-06-12T19:16:50.000-07:00,40.6704922,"",-73.98541675,"",7 St & 5 Ave,"",7 St & 5 Ave,1,In Service,false,27
3609,"",6,17,"","",2019-06-12T19:16:36.000-07:00,40.7692475,"",-73.9354504,"",Vernon Blvd & 31 Ave,"",Vernon Blvd & 31 Ave,1,In Service,false,23
3725,"",9,32,"","",2019-06-12T19:16:13.000-07:00,40.7687620293096,"",-73.95840793848038,"",2 Ave & E 72 St,"",2 Ave & E 72 St,1,In Service,false,41
387,"",0,37,"","",2019-06-12T19:17:08.000-07:00,40.71273266,"",-74.0046073,"",Centre St & Chambers St,"",Centre St & Chambers St,1,In Service,false,39
3225,"",8,5,"","",2019-06-12T19:16:56.000-07:00,40.7236589,"",-74.0641943,"",Baldwin at Montgomery,"",Baldwin at Montgomery,1,In Service,false,14
3244,"",15,25,"","",2019-06-12T19:16:44.000-07:00,40.73143724085228,"",-73.99490341544151,"",University Pl & E 8 St,"",University Pl & E 8 St,1,In Service,false,42
3333,"",21,0,"","",2019-06-12T19:17:40.000-07:00,40.6747055,"",-74.0075572,"",Columbia St & Lorraine St,"",Columbia St & Lorraine St,1,In Service,false,21
3348,"",16,3,"","",2019-06-12T19:14:54.000-07:00,40.677236,"",-74.015665,"",Coffey St & Conover St,"",Coffey St & Conover St,1,In Service,false,19
354,"",12,11,"","",2019-06-12T19:14:32.000-07:00,40.69363137,"",-73.96223558,"",Emerson Pl & Myrtle Ave,"",Emerson Pl & Myrtle Ave,1,In Service,false,23
483,"",24,9,"","",2019-06-12T19:17:16.000-07:00,40.73223272,"",-73.98889957,"",E 12 St & 3 Ave,"",E 12 St & 3 Ave,1,In Service,false,34
3347,"",15,2,"","",2019-06-12T19:17:42.000-07:00,40.6773429,"",-74.01275056,"",Van Brunt St & Wolcott St,"",Van Brunt St & Wolcott St,1,In Service,false,21
3401,"",0,0,"","",2019-05-31T11:25:47.000-07:00,40.6724811,"",-73.99331394,"",2 Ave & 9 St,"",2 Ave & 9 St,3,Not In Service,false,0
3648,"",4,21,"","",2019-06-12T19:14:43.000-07:00,40.697950315695444,"",-73.97077560424805,"",Flushing Ave & Vanderbilt Ave,"",Flushing Ave & Vanderbilt Ave,1,In Service,false,25
476,"",2,45,"","",2019-06-12T19:16:55.000-07:00,40.74394314,"",-73.97966069,"",E 31 St & 3 Ave,"",E 31 St & 3 Ave,1,In Service,false,47
3721,"",1,33,"","",2019-06-12T19:14:12.000-07:00,40.7675487799971,"",-73.9209334552288,"",31 St & Newtown Ave,"",31 St & Newtown Ave,1,In Service,false,35
3128,"",1,22,"","",2019-06-12T19:16:33.000-07:00,40.75052534,"",-73.94594845,"",21 St & 43 Ave,"",21 St & 43 Ave,1,In Service,false,23
3186,"",14,26,"","",2019-06-12T19:17:04.000-07:00,40.71958611647166,"",-74.04311746358871,"",Grove St PATH,"",Grove St PATH,1,In Service,false,42
3279,"",14,4,"","",2019-06-12T19:13:50.000-07:00,40.721630142638354,"",-74.04996782541275,"",Dixon Mills,"",Dixon Mills,1,In Service,false,18
3443,"",0,36,"","",2019-06-12T19:17:12.000-07:00,40.76132983124814,"",-73.97982001304626,"",W 52 St & 6 Ave,"",W 52 St & 6 Ave,1,In Service,false,41
545,"",17,9,"","",2019-06-12T19:16:19.000-07:00,40.736502,"",-73.97809472,"",E 23 St & 1 Ave,"",E 23 St & 1 Ave,1,In Service,false,27
3393,"",13,6,"","",2019-06-12T19:15:41.000-07:00,40.6794327,"",-74.00785041,"",Richards St & Delavan St,"",Richards St & Delavan St,1,In Service,false,19
3602,"",8,15,"","",2019-06-12T19:16:49.000-07:00,40.763154,"",-73.920827,"",31 Ave & 34 St,"",31 Ave & 34 St,1,In Service,false,23
3723,"",7,21,"","",2019-06-12T19:17:11.000-07:00,40.695317277669034,"",-73.99015724658966,"",Cadman Plaza E & Johnson St,"",Cadman Plaza E & Johnson St,1,In Service,false,30
311,"",26,5,"","",2019-06-12T19:13:55.000-07:00,40.7172274,"",-73.98802084,"",Norfolk St & Broome St,"",Norfolk St & Broome St,1,In Service,false,31
534,"",0,31,"","",2019-06-12T19:13:59.000-07:00,40.70255065,"",-74.0127234,"",Water - Whitehall Plaza,"",Water - Whitehall Plaza,1,In Service,false,31
3142,"",4,36,"","",2019-06-12T19:17:18.000-07:00,40.7612274,"",-73.96094022,"",1 Ave & E 62 St,"",1 Ave & E 62 St,1,In Service,false,41
3157,"",8,19,"","",2019-06-12T19:15:23.000-07:00,40.77518615,"",-73.94446054,"",E End Ave & E 86 St,"",E End Ave & E 86 St,1,In Service,false,27
3205,"",14,7,"","",2019-06-12T19:15:37.000-07:00,40.71653978099194,"",-74.0496379137039,"",JC Medical Center,"",JC Medical Center,1,In Service,false,22
3381,"",17,4,"","",2019-06-12T19:17:10.000-07:00,40.6777287,"",-73.99364123,"",3 St & Hoyt St,"",3 St & Hoyt St,1,In Service,false,21
3062,"",11,12,"","",2019-06-12T19:17:15.000-07:00,40.69539817,"",-73.94954908,"",Myrtle Ave & Marcy Ave,"",Myrtle Ave & Marcy Ave,1,In Service,false,23
3154,"",7,24,"","",2019-06-12T19:15:04.000-07:00,40.77314236,"",-73.95856158,"",E 77 St & 3 Ave,"",E 77 St & 3 Ave,1,In Service,false,31
3508,"",3,25,"","",2019-06-12T19:16:22.000-07:00,40.809725,"",-73.953149,"",St Nicholas Ave & Manhattan Ave,"",St Nicholas Ave & Manhattan Ave,1,In Service,false,31
3582,"",10,17,"","",2019-06-12T19:16:40.000-07:00,40.6721683,"",-73.9609,"",Lincoln Pl & Classon Ave,"",Lincoln Pl & Classon Ave,1,In Service,false,28
3693,"",10,17,"","",2019-06-12T19:17:05.000-07:00,40.72248188638219,"",-73.95921930670738,"",N 11 St & Kent Ave,"",N 11 St & Kent Ave,1,In Service,false,27
251,"",19,6,"","",2019-06-12T19:16:06.000-07:00,40.72317958,"",-73.99480012,"",Mott St & Prince St,"",Mott St & Prince St,1,In Service,false,27
259,"",0,37,"","",2019-06-12T19:17:11.000-07:00,40.70122128,"",-74.01234218,"",S St & Whitehall St,"",S St & Whitehall St,1,In Service,false,39
366,"",32,1,"","",2019-06-12T19:17:41.000-07:00,40.693261,"",-73.968896,"",Clinton Ave & Myrtle Ave,"",Clinton Ave & Myrtle Ave,1,In Service,false,33
3187,"",0,20,"","",2019-06-12T19:13:48.000-07:00,40.7211236,"",-74.03805095,"",Warren St,"",Warren St,1,In Service,false,22
3303,"",15,10,"","",2019-06-12T19:17:13.000-07:00,40.6849894,"",-73.99440329,"",Butler St & Court St,"",Butler St & Court St,1,In Service,false,25
3359,"",1,34,"","",2019-06-12T19:17:37.000-07:00,40.7691572,"",-73.96703464,"",E 68 St & Madison Ave,"",E 68 St & Madison Ave,1,In Service,false,35
282,"",16,11,"","",2019-06-12T19:17:34.000-07:00,40.707644944175705,"",-73.96841526031494,"",Kent Ave & S 11 St,"",Kent Ave & S 11 St,1,In Service,false,27
285,"",4,49,"","",2019-06-12T19:17:30.000-07:00,40.73454567,"",-73.99074142,"",Broadway & E 14 St,"",Broadway & E 14 St,1,In Service,false,53
2000,"",4,26,"","",2019-06-12T19:16:37.000-07:00,40.70255088,"",-73.98940236,"",Front St & Washington St,"",Front St & Washington St,1,In Service,false,30
3629,"",4,29,"","",2019-06-12T19:15:29.000-07:00,40.809495347779475,"",-73.94776493310928,"",Adam Clayton Powell Blvd & W 126 St,"",Adam Clayton Powell Blvd & W 126 St,1,In Service,false,33
522,"",1,50,"","",2019-06-12T19:14:54.000-07:00,40.75714758,"",-73.97207836,"",E 51 St & Lexington Ave,"",E 51 St & Lexington Ave,1,In Service,false,51
3597,"",4,21,"","",2019-06-12T19:14:51.000-07:00,40.7577284,"",-73.9166368,"",43 St & Broadway,"",43 St & Broadway,1,In Service,false,25
3639,"",0,28,"","",2019-06-12T19:17:17.000-07:00,40.7192517,"",-74.034234,"",Harborside,"",Harborside,1,In Service,false,30
3765,"",1,19,"","",2019-06-12T19:14:35.000-07:00,40.709897,"",-73.94008,"",Bushwick Ave & Stagg St,"",Bushwick Ave & Stagg St,1,In Service,false,21
396,"",13,12,"","",2019-06-12T19:17:24.000-07:00,40.680342423,"",-73.9557689392,"",Lefferts Pl & Franklin Ave,"",Lefferts Pl & Franklin Ave,1,In Service,false,25
3124,"",15,11,"","",2019-06-12T19:17:37.000-07:00,40.74731,"",-73.95451,"",46 Ave & 5 St,"",46 Ave & 5 St,1,In Service,false,27
3315,"",22,0,"","",2019-06-12T19:17:23.000-07:00,40.6847514,"",-73.99917254,"",Henry St & Degraw St,"",Henry St & Degraw St,1,In Service,false,23
3479,"",33,10,"","",2019-06-12T19:15:28.000-07:00,40.68512559515415,"",-74.02535319328308,"",Picnic Point,"",Picnic Point,1,In Service,false,45
3100,"",26,24,"","",2019-06-12T19:16:40.000-07:00,40.724812564400175,"",-73.94752621650696,"",Nassau Ave & Newell St,"",Nassau Ave & Newell St,1,In Service,false,51
3123,"",2,24,"","",2019-06-12T19:15:47.000-07:00,40.74469738,"",-73.93540375,"",31 St & Thomson Ave,"",31 St & Thomson Ave,1,In Service,false,27
3305,"",23,15,"","",2019-06-12T19:15:43.000-07:00,40.78112229934166,"",-73.94965589046478,"",E 91 St & 2 Ave,"",E 91 St & 2 Ave,1,In Service,false,39
3414,"",22,8,"","",2019-06-12T19:16:29.000-07:00,40.680944723477296,"",-73.97567331790923,"",Bergen St & Flatbush Ave,"",Bergen St & Flatbush Ave,1,In Service,false,33
3678,"",8,9,"","",2019-06-12T19:16:35.000-07:00,40.72572613742557,"",-74.07195925712585,"",Fairmount Ave,"",Fairmount Ave,1,In Service,false,18
281,"",0,63,"","",2019-06-12T19:16:22.000-07:00,40.7643971,"",-73.97371465,"",Grand Army Plaza & Central Park S,"",Grand Army Plaza & Central Park S,1,In Service,false,66
336,"",35,1,"","",2019-06-12T19:16:26.000-07:00,40.73047747,"",-73.99906065,"",Sullivan St & Washington Sq,"",Sullivan St & Washington Sq,1,In Service,false,36
3299,"",0,25,"","",2019-06-12T19:14:23.000-07:00,40.78813,"",-73.95206,"",E 98 St & Park Ave,"",E 98 St & Park Ave,1,In Service,false,25
3458,"",0,0,"","",2019-05-07T09:15:24.000-07:00,40.76309387270797,"",-73.9783501625061,"",W 55 St & 6 Ave,"",W 55 St & 6 Ave,3,Not In Service,false,0
3496,"",16,9,"","",2019-06-12T19:15:44.000-07:00,40.7923272,"",-73.9383,"",1 Ave & E 110 St,"",1 Ave & E 110 St,1,In Service,false,25
3661,"",18,0,"","",2019-06-12T19:16:09.000-07:00,40.666439306870814,"",-73.9605563879013,"",Montgomery St & Franklin Ave,"",Montgomery St & Franklin Ave,1,In Service,false,19
267,"",0,0,"","",2019-05-03T07:05:17.000-07:00,40.75097711,"",-73.98765428,"",Broadway & W 36 St,"",Broadway & W 36 St,3,Not In Service,false,0
317,"",52,1,"","",2019-06-12T19:15:55.000-07:00,40.72453734,"",-73.98185424,"",E 6 St & Ave. B,"",E 6 St & Ave. B,1,In Service,false,54
357,"",0,0,"","",1969-12-31T19:00:00.000-08:00,40.73261787,"",-73.99158043,"",E 11 St & Broadway,"",E 11 St & Broadway,3,Not In Service,false,0
416,"",13,18,"","",2019-06-12T19:15:36.000-07:00,40.68753406,"",-73.97265183,"",Cumberland St & Lafayette Ave,"",Cumberland St & Lafayette Ave,1,In Service,false,31
3220,"",0,18,"","",2019-06-12T19:14:12.000-07:00,40.734961020009514,"",-74.0595030784607,"",5 Corners Library,"",5 Corners Library,1,In Service,false,18
3435,"",10,31,"","",2019-06-12T19:16:05.000-07:00,40.718822,"",-73.99596,"",Grand St & Elizabeth St,"",Grand St & Elizabeth St,1,In Service,false,45
261,"",8,19,"","",2019-06-12T19:17:42.000-07:00,40.69474881,"",-73.98362464,"",Johnson St & Gold St,"",Johnson St & Gold St,1,In Service,false,27
398,"",30,1,"","",2019-06-12T19:16:45.000-07:00,40.69165183,"",-73.9999786,"",Atlantic Ave & Furman St,"",Atlantic Ave & Furman St,1,In Service,false,31
3146,"",9,38,"","",2019-06-12T19:15:16.000-07:00,40.77573034,"",-73.9567526,"",E 81 St & 3 Ave,"",E 81 St & 3 Ave,1,In Service,false,47
3301,"",16,23,"","",2019-06-12T19:15:27.000-07:00,40.7919557,"",-73.968087,"",Columbus Ave & W 95 St,"",Columbus Ave & W 95 St,1,In Service,false,39
3711,"",42,5,"","",2019-06-12T19:17:10.000-07:00,40.72966729392978,"",-73.98067966103554,"",E 13 St & Ave. A,"",E 13 St & Ave. A,1,In Service,false,47
3745,"",0,27,"","",2019-06-12T19:13:57.000-07:00,40.75651272984955,"",-73.92957486212252,"",36 Ave & 31 St,"",36 Ave & 31 St,1,In Service,false,27
3058,"",9,14,"","",2019-06-12T19:15:58.000-07:00,40.69237074,"",-73.93705428,"",Lewis Ave & Kosciuszko St,"",Lewis Ave & Kosciuszko St,1,In Service,false,24
394,"",31,1,"","",2019-06-12T19:17:03.000-07:00,40.72521311,"",-73.97768752,"",E 9 St & Ave. C,"",E 9 St & Ave. C,1,In Service,false,34
484,"",0,44,"","",2019-06-12T19:14:22.000-07:00,40.75500254,"",-73.98014437,"",W 44 St & 5 Ave,"",W 44 St & 5 Ave,1,In Service,false,46
531,"",22,14,"","",2019-06-12T19:16:18.000-07:00,40.71893904,"",-73.99266288,"",Forsyth St & Broome St,"",Forsyth St & Broome St,1,In Service,false,39
3194,"",3,19,"","",2019-06-12T19:17:06.000-07:00,40.7253399253558,"",-74.06762212514877,"",McGinley Square,"",McGinley Square,1,In Service,false,22
3212,"",5,17,"","",2019-06-12T19:17:07.000-07:00,40.734785818,"",-74.050443636,"",Christ Hospital,"",Christ Hospital,1,In Service,false,22
3317,"",18,6,"","",2019-06-12T19:17:29.000-07:00,40.6686273,"",-73.98700053,"",10 St & 5 Ave,"",10 St & 5 Ave,1,In Service,false,24
3425,"",1,31,"","",2019-06-12T19:15:06.000-07:00,40.7892105,"",-73.94370784,"",2 Ave & E 104 St,"",2 Ave & E 104 St,1,In Service,false,33
3560,"",0,19,"","",2019-06-12T19:15:06.000-07:00,40.754876,"",-73.934326,"",28 St & 38 Ave,"",28 St & 38 Ave,1,In Service,false,19
3747,"",12,20,"","",2019-06-12T19:17:43.000-07:00,40.77755374298887,"",-73.95512759685516,"",E 84 St & 3 Ave,"",E 84 St & 3 Ave,1,In Service,false,33
3749,"",1,20,"","",2019-06-12T19:16:26.000-07:00,40.747573958954796,"",-73.9788007736206,"",Lexington Ave & E 36 St,"",Lexington Ave & E 36 St,1,In Service,false,23
3774,"",18,4,"","",2019-06-12T19:15:40.000-07:00,40.704425,"",-73.92836,"",Knickerbocker Ave & George St,"",Knickerbocker Ave & George St,1,In Service,false,23
3788,"",3,24,"","",2019-06-12T19:15:20.000-07:00,40.73269,"",-73.98974,"",E 12 St & 4 Av,"",E 12 St & 4 Av,1,In Service,false,27
3002,"",2,19,"","",2019-06-12T19:17:44.000-07:00,40.711512,"",-74.015756,"",S End Ave & Liberty St,"",S End Ave & Liberty St,1,In Service,false,25
3096,"",31,3,"","",2019-06-12T19:15:21.000-07:00,40.71924,"",-73.95242,"",Union Ave & N 12 St,"",Union Ave & N 12 St,1,In Service,false,39
3289,"",6,26,"","",2019-06-12T19:15:19.000-07:00,40.79017948095081,"",-73.97288918495178,"",W 90 St & Amsterdam Ave,"",W 90 St & Amsterdam Ave,1,In Service,false,32
3720,"",16,7,"","",2019-06-12T19:14:55.000-07:00,40.68461653897949,"",-73.98721285164356,"",Wyckoff St & Bond St,"",Wyckoff St & Bond St,1,In Service,false,23
340,"",12,15,"","",2019-06-12T19:15:39.000-07:00,40.71269042,"",-73.98776323,"",Madison St & Clinton St,"",Madison St & Clinton St,1,In Service,false,27
456,"",0,33,"","",2019-06-12T19:16:16.000-07:00,40.7597108,"",-73.97402311,"",E 53 St & Madison Ave,"",E 53 St & Madison Ave,1,In Service,false,35
458,"",0,30,"","",2019-06-12T19:15:14.000-07:00,40.751396,"",-74.005226,"",11 Ave & W 27 St,"",11 Ave & W 27 St,1,In Service,false,31
469,"",0,57,"","",2019-06-12T19:16:26.000-07:00,40.76344058,"",-73.98268129,"",Broadway & W 53 St,"",Broadway & W 53 St,1,In Service,false,57
526,"",0,0,"","",2019-06-05T07:49:15.000-07:00,40.74765947,"",-73.98490707,"",E 33 St & 5 Ave,"",E 33 St & 5 Ave,3,Not In Service,false,0
3376,"",0,38,"","",2019-06-12T19:16:51.000-07:00,40.76471851944339,"",-73.96222069859505,"",E 65 St & 2 Ave,"",E 65 St & 2 Ave,1,In Service,false,39
